{"type":"FeatureCollection","features":[{"type":"Feature","properties":{"name":"Guadelupa","parentIso":"FRA","iso":"France:guadeloupe"},"geometry":{"type":"MultiPolygon","coordinates":[[[[-61.194,15.932],[-61.195,15.92],[-61.198,15.911],[-61.204,15.903],[-61.216,15.894],[-61.241,15.882],[-61.275,15.874],[-61.305,15.878],[-61.318,15.904],[-61.319,15.911],[-61.322,15.919],[-61.325,15.926],[-61.329,15.929],[-61.332,15.932],[-61.328,15.939],[-61.318,15.953],[-61.315,15.967],[-61.308,15.978],[-61.29,15.998],[-61.268,16.009],[-61.244,16.004],[-61.224,15.988],[-61.212,15.959],[-61.205,15.953],[-61.197,15.945],[-61.194,15.932]]],[[[-60.989,16.346],[-61.04,16.314],[-61.069,16.302],[-61.092,16.305],[-61.079,16.312],[-61.039,16.344],[-61.015,16.354],[-60.989,16.346]]],[[[-61.552,16.286],[-61.549,16.281],[-61.555,16.258],[-61.548,16.238],[-61.555,16.237],[-61.573,16.233],[-61.579,16.222],[-61.577,16.176],[-61.565,16.141],[-61.558,16.086],[-61.566,16.034],[-61.597,15.997],[-61.643,15.97],[-61.695,15.949],[-61.697,15.955],[-61.702,15.97],[-61.695,15.976],[-61.702,15.99],[-61.711,15.997],[-61.721,16.004],[-61.733,16.014],[-61.74,16.026],[-61.744,16.037],[-61.748,16.047],[-61.756,16.052],[-61.769,16.088],[-61.769,16.166],[-61.784,16.202],[-61.779,16.217],[-61.784,16.229],[-61.792,16.24],[-61.797,16.251],[-61.798,16.268],[-61.794,16.299],[-61.797,16.312],[-61.788,16.32],[-61.771,16.349],[-61.756,16.361],[-61.738,16.365],[-61.729,16.36],[-61.722,16.351],[-61.712,16.346],[-61.687,16.342],[-61.65,16.329],[-61.616,16.312],[-61.599,16.292],[-61.613,16.286],[-61.605,16.282],[-61.603,16.281],[-61.603,16.282],[-61.599,16.286],[-61.596,16.282],[-61.585,16.271],[-61.58,16.282],[-61.571,16.29],[-61.558,16.292],[-61.552,16.286]]],[[[-61.544,16.285],[-61.544,16.285],[-61.544,16.286],[-61.528,16.338],[-61.518,16.349],[-61.5,16.353],[-61.497,16.357],[-61.496,16.365],[-61.495,16.374],[-61.496,16.381],[-61.5,16.386],[-61.507,16.39],[-61.516,16.393],[-61.524,16.395],[-61.529,16.43],[-61.534,16.439],[-61.534,16.449],[-61.526,16.462],[-61.51,16.48],[-61.506,16.487],[-61.496,16.494],[-61.465,16.51],[-61.463,16.513],[-61.459,16.512],[-61.427,16.489],[-61.409,16.472],[-61.398,16.452],[-61.393,16.425],[-61.396,16.399],[-61.394,16.389],[-61.386,16.374],[-61.377,16.36],[-61.366,16.349],[-61.353,16.34],[-61.339,16.333],[-61.332,16.34],[-61.322,16.335],[-61.312,16.334],[-61.302,16.335],[-61.29,16.333],[-61.281,16.327],[-61.259,16.309],[-61.253,16.305],[-61.243,16.3],[-61.188,16.264],[-61.169,16.259],[-61.164,16.253],[-61.175,16.244],[-61.183,16.244],[-61.211,16.251],[-61.219,16.254],[-61.234,16.258],[-61.411,16.219],[-61.444,16.205],[-61.462,16.202],[-61.484,16.206],[-61.503,16.213],[-61.52,16.223],[-61.534,16.233],[-61.544,16.246],[-61.548,16.258],[-61.548,16.271],[-61.544,16.285]]],[[[-61.625,15.871],[-61.621,15.868],[-61.616,15.86],[-61.619,15.852],[-61.628,15.847],[-61.638,15.853],[-61.635,15.866],[-61.625,15.871]]],[[[-61.566,15.878],[-61.566,15.877],[-61.565,15.874],[-61.571,15.87],[-61.582,15.862],[-61.593,15.858],[-61.596,15.863],[-61.59,15.868],[-61.585,15.871],[-61.58,15.881],[-61.574,15.883],[-61.568,15.881],[-61.566,15.878]]]]}},{"type":"Feature","properties":{"name":"Martinica","parentIso":"FRA","iso":"France:martinique"},"geometry":{"type":"Polygon","coordinates":[[[-60.81,14.462],[-60.823,14.457],[-60.835,14.428],[-60.845,14.414],[-60.856,14.409],[-60.871,14.408],[-60.882,14.413],[-60.887,14.428],[-60.881,14.438],[-60.869,14.441],[-60.86,14.447],[-60.859,14.462],[-60.869,14.476],[-60.882,14.471],[-60.898,14.461],[-60.914,14.462],[-60.913,14.472],[-60.92,14.473],[-60.948,14.469],[-61.006,14.476],[-61.022,14.474],[-61.046,14.464],[-61.061,14.462],[-61.07,14.467],[-61.092,14.497],[-61.091,14.504],[-61.092,14.508],[-61.097,14.512],[-61.106,14.517],[-61.079,14.545],[-61.052,14.557],[-61.044,14.565],[-61.033,14.55],[-61.018,14.545],[-61.003,14.551],[-60.996,14.565],[-60.999,14.571],[-61.007,14.582],[-61.014,14.596],[-61.016,14.613],[-61.031,14.608],[-61.044,14.605],[-61.054,14.605],[-61.065,14.606],[-61.086,14.605],[-61.092,14.606],[-61.096,14.61],[-61.102,14.622],[-61.106,14.626],[-61.142,14.65],[-61.16,14.667],[-61.167,14.685],[-61.168,14.691],[-61.17,14.696],[-61.174,14.701],[-61.178,14.706],[-61.182,14.713],[-61.18,14.72],[-61.177,14.726],[-61.175,14.733],[-61.177,14.745],[-61.183,14.756],[-61.191,14.766],[-61.219,14.795],[-61.226,14.808],[-61.229,14.822],[-61.226,14.836],[-61.219,14.847],[-61.211,14.854],[-61.171,14.876],[-61.136,14.877],[-61.102,14.866],[-61.058,14.839],[-61.019,14.822],[-61.002,14.811],[-60.998,14.804],[-60.996,14.795],[-60.991,14.788],[-60.979,14.785],[-60.961,14.75],[-60.947,14.761],[-60.927,14.771],[-60.903,14.777],[-60.879,14.777],[-60.886,14.772],[-60.892,14.768],[-60.895,14.764],[-60.893,14.757],[-60.914,14.736],[-60.926,14.756],[-60.934,14.75],[-60.937,14.731],[-60.935,14.709],[-60.926,14.713],[-60.919,14.712],[-60.913,14.709],[-60.907,14.703],[-60.935,14.688],[-60.927,14.681],[-60.939,14.675],[-60.937,14.666],[-60.929,14.664],[-60.92,14.675],[-60.887,14.661],[-60.894,14.66],[-60.898,14.658],[-60.902,14.656],[-60.907,14.654],[-60.901,14.639],[-60.893,14.631],[-60.873,14.62],[-60.87,14.614],[-60.869,14.608],[-60.865,14.602],[-60.855,14.599],[-60.848,14.596],[-60.845,14.589],[-60.844,14.579],[-60.845,14.571],[-60.832,14.579],[-60.836,14.566],[-60.836,14.553],[-60.833,14.541],[-60.825,14.53],[-60.831,14.527],[-60.833,14.524],[-60.835,14.521],[-60.838,14.517],[-60.825,14.51],[-60.82,14.497],[-60.817,14.481],[-60.81,14.469],[-60.81,14.462]]]}},{"type":"Feature","properties":{"name":"Réunion","parentIso":"FRA","iso":"France:reunion"},"geometry":{"type":"Polygon","coordinates":[[[55.788,-21.103],[55.802,-21.112],[55.838,-21.126],[55.85,-21.138],[55.855,-21.157],[55.849,-21.174],[55.841,-21.191],[55.824,-21.264],[55.822,-21.285],[55.823,-21.304],[55.821,-21.325],[55.812,-21.343],[55.791,-21.35],[55.756,-21.349],[55.738,-21.352],[55.707,-21.367],[55.683,-21.371],[55.66,-21.37],[55.644,-21.364],[55.627,-21.369],[55.602,-21.37],[55.575,-21.368],[55.554,-21.364],[55.537,-21.355],[55.506,-21.334],[55.475,-21.327],[55.434,-21.312],[55.418,-21.302],[55.41,-21.293],[55.404,-21.284],[55.398,-21.278],[55.387,-21.275],[55.355,-21.275],[55.35,-21.271],[55.342,-21.258],[55.308,-21.219],[55.296,-21.2],[55.291,-21.176],[55.291,-21.159],[55.288,-21.144],[55.246,-21.091],[55.233,-21.069],[55.225,-21.048],[55.225,-21.03],[55.231,-21.01],[55.242,-20.993],[55.275,-20.98],[55.288,-20.965],[55.292,-20.947],[55.287,-20.932],[55.293,-20.926],[55.295,-20.922],[55.293,-20.917],[55.287,-20.912],[55.303,-20.905],[55.336,-20.905],[55.364,-20.886],[55.408,-20.863],[55.456,-20.861],[55.473,-20.863],[55.501,-20.873],[55.514,-20.875],[55.527,-20.87],[55.542,-20.875],[55.578,-20.875],[55.592,-20.88],[55.606,-20.888],[55.651,-20.898],[55.664,-20.905],[55.674,-20.913],[55.695,-20.935],[55.703,-20.949],[55.707,-20.982],[55.712,-20.994],[55.737,-21.018],[55.74,-21.025],[55.741,-21.045],[55.744,-21.055],[55.747,-21.063],[55.753,-21.067],[55.771,-21.074],[55.774,-21.079],[55.776,-21.084],[55.788,-21.103]]]}},{"type":"Feature","properties":{"name":"Mayotte","parentIso":"FRA","iso":"France:mayotte"},"geometry":{"type":"MultiPolygon","coordinates":[[[[45.262,-12.763],[45.277,-12.747],[45.283,-12.743],[45.289,-12.76],[45.291,-12.774],[45.288,-12.788],[45.283,-12.805],[45.276,-12.805],[45.262,-12.763]]],[[[45.201,-12.723],[45.218,-12.734],[45.225,-12.746],[45.225,-12.76],[45.221,-12.778],[45.197,-12.812],[45.188,-12.817],[45.189,-12.829],[45.195,-12.841],[45.213,-12.852],[45.211,-12.865],[45.204,-12.879],[45.201,-12.884],[45.192,-12.905],[45.175,-12.924],[45.168,-12.944],[45.186,-12.969],[45.182,-12.976],[45.178,-12.981],[45.173,-12.985],[45.166,-12.989],[45.16,-12.979],[45.153,-12.98],[45.144,-12.986],[45.132,-12.989],[45.121,-12.986],[45.113,-12.981],[45.107,-12.978],[45.097,-12.982],[45.098,-12.968],[45.094,-12.958],[45.085,-12.954],[45.07,-12.955],[45.07,-12.949],[45.088,-12.94],[45.09,-12.924],[45.081,-12.908],[45.063,-12.899],[45.065,-12.893],[45.073,-12.888],[45.084,-12.887],[45.09,-12.891],[45.108,-12.912],[45.125,-12.921],[45.134,-12.917],[45.136,-12.904],[45.132,-12.887],[45.124,-12.875],[45.113,-12.863],[45.084,-12.839],[45.098,-12.833],[45.105,-12.833],[45.105,-12.826],[45.099,-12.817],[45.094,-12.803],[45.091,-12.774],[45.087,-12.76],[45.078,-12.754],[45.067,-12.75],[45.057,-12.743],[45.049,-12.734],[45.045,-12.725],[45.043,-12.714],[45.042,-12.698],[45.091,-12.647],[45.095,-12.654],[45.096,-12.657],[45.097,-12.661],[45.093,-12.662],[45.09,-12.663],[45.084,-12.668],[45.091,-12.667],[45.094,-12.669],[45.095,-12.672],[45.097,-12.674],[45.111,-12.686],[45.129,-12.707],[45.139,-12.715],[45.153,-12.718],[45.184,-12.718],[45.201,-12.723]]]]}},{"type":"Feature","properties":{"name":"Saint-Pierre și Miquelon","parentIso":"FRA","iso":"SPM"},"geometry":{"type":"MultiPolygon","coordinates":[[[[-56.151,46.794],[-56.156,46.789],[-56.161,46.784],[-56.164,46.779],[-56.165,46.773],[-56.15,46.767],[-56.145,46.766],[-56.168,46.757],[-56.196,46.753],[-56.222,46.755],[-56.24,46.766],[-56.219,46.788],[-56.208,46.798],[-56.192,46.807],[-56.18,46.81],[-56.161,46.812],[-56.148,46.808],[-56.151,46.794]]],[[[-56.274,46.895],[-56.236,46.872],[-56.249,46.842],[-56.289,46.814],[-56.346,46.784],[-56.359,46.781],[-56.371,46.786],[-56.378,46.799],[-56.375,46.807],[-56.375,46.814],[-56.391,46.824],[-56.396,46.836],[-56.38,46.852],[-56.343,46.876],[-56.328,46.915],[-56.337,46.954],[-56.385,47.036],[-56.388,47.052],[-56.391,47.088],[-56.397,47.104],[-56.396,47.114],[-56.388,47.125],[-56.377,47.134],[-56.366,47.14],[-56.355,47.141],[-56.343,47.136],[-56.361,47.126],[-56.372,47.116],[-56.371,47.106],[-56.357,47.095],[-56.34,47.089],[-56.305,47.083],[-56.253,47.054],[-56.252,47.044],[-56.252,47.03],[-56.256,47.018],[-56.269,47.008],[-56.274,46.999],[-56.28,46.99],[-56.292,46.985],[-56.298,46.988],[-56.3,46.992],[-56.302,46.997],[-56.305,46.999],[-56.312,46.998],[-56.33,46.992],[-56.344,46.996],[-56.35,46.995],[-56.35,46.985],[-56.346,46.98],[-56.34,46.979],[-56.334,46.98],[-56.326,46.976],[-56.32,46.976],[-56.314,46.976],[-56.309,46.972],[-56.307,46.965],[-56.31,46.96],[-56.314,46.957],[-56.316,46.954],[-56.316,46.913],[-56.312,46.9],[-56.301,46.896],[-56.274,46.895]]]]}},{"type":"Feature","properties":{"name":"Saint-Martin","parentIso":"FRA","iso":"MAF"},"geometry":{"type":"Polygon","coordinates":[[[-63.018,18.033],[-63.086,18.059],[-63.107,18.062],[-63.107,18.067],[-63.115,18.065],[-63.131,18.06],[-63.134,18.059],[-63.144,18.065],[-63.147,18.07],[-63.144,18.074],[-63.114,18.075],[-63.096,18.079],[-63.084,18.088],[-63.079,18.104],[-63.071,18.11],[-63.052,18.117],[-63.031,18.122],[-63.018,18.122],[-63.018,18.101],[-63.011,18.071],[-63.011,18.041],[-63.018,18.033]]]}},{"type":"Feature","properties":{"name":"Saint-Barthélemy","parentIso":"FRA","iso":"BLM"},"geometry":{"type":"Polygon","coordinates":[[[-62.839,17.882],[-62.851,17.89],[-62.861,17.905],[-62.867,17.92],[-62.866,17.929],[-62.857,17.925],[-62.792,17.915],[-62.799,17.904],[-62.81,17.892],[-62.824,17.883],[-62.839,17.882]]]}},{"type":"Feature","properties":{"name":"Polinezia Franceză","parentIso":"FRA","iso":"PYF"},"geometry":{"type":"MultiPolygon","coordinates":[[[[-136.166,-22.024],[-136.176,-22.03],[-136.186,-22.034],[-136.164,-22.014],[-136.164,-22.016],[-136.166,-22.024]]],[[[-136.377,-21.468],[-136.386,-21.464],[-136.396,-21.463],[-136.405,-21.465],[-136.413,-21.471],[-136.405,-21.46],[-136.391,-21.456],[-136.38,-21.459],[-136.377,-21.468]]],[[[-136.549,-21.337],[-136.532,-21.331],[-136.526,-21.338],[-136.529,-21.35],[-136.543,-21.36],[-136.534,-21.349],[-136.536,-21.342],[-136.542,-21.339],[-136.549,-21.337]]],[[[-136.636,-21.342],[-136.647,-21.327],[-136.652,-21.323],[-136.644,-21.323],[-136.64,-21.326],[-136.638,-21.333],[-136.636,-21.342]]],[[[-136.734,-21.312],[-136.739,-21.309],[-136.742,-21.304],[-136.746,-21.303],[-136.752,-21.309],[-136.746,-21.299],[-136.739,-21.299],[-136.732,-21.306],[-136.729,-21.318],[-136.731,-21.317],[-136.732,-21.316],[-136.733,-21.314],[-136.734,-21.312]]],[[[-140.414,-19.614],[-140.407,-19.61],[-140.395,-19.615],[-140.383,-19.625],[-140.377,-19.636],[-140.379,-19.649],[-140.387,-19.657],[-140.399,-19.662],[-140.412,-19.664],[-140.397,-19.651],[-140.387,-19.64],[-140.39,-19.629],[-140.414,-19.614]]],[[[-139.202,-19.351],[-139.204,-19.346],[-139.205,-19.341],[-139.208,-19.337],[-139.215,-19.335],[-139.203,-19.335],[-139.196,-19.341],[-139.196,-19.35],[-139.205,-19.359],[-139.202,-19.351]]],[[[-138.797,-19.29],[-138.806,-19.289],[-138.809,-19.287],[-138.812,-19.284],[-138.802,-19.282],[-138.795,-19.282],[-138.792,-19.284],[-138.797,-19.29]]],[[[-141.266,-19.204],[-141.252,-19.19],[-141.237,-19.194],[-141.228,-19.208],[-141.23,-19.227],[-141.234,-19.212],[-141.243,-19.202],[-141.255,-19.199],[-141.266,-19.204]]],[[[-140.722,-19.134],[-140.696,-19.119],[-140.67,-19.132],[-140.661,-19.152],[-140.686,-19.162],[-140.67,-19.143],[-140.681,-19.132],[-140.704,-19.129],[-140.722,-19.134]]],[[[-138.802,-18.765],[-138.795,-18.771],[-138.793,-18.774],[-138.793,-18.779],[-138.83,-18.76],[-138.823,-18.76],[-138.816,-18.761],[-138.802,-18.765]]],[[[-143.092,-17.853],[-143.081,-17.838],[-143.072,-17.84],[-143.06,-17.866],[-143.06,-17.868],[-143.065,-17.864],[-143.07,-17.855],[-143.073,-17.844],[-143.078,-17.852],[-143.082,-17.858],[-143.087,-17.858],[-143.092,-17.853]]],[[[-150.655,-17.669],[-150.643,-17.655],[-150.64,-17.666],[-150.645,-17.678],[-150.655,-17.669]]],[[[-141.439,-17.368],[-141.442,-17.36],[-141.454,-17.352],[-141.467,-17.349],[-141.482,-17.349],[-141.461,-17.345],[-141.445,-17.352],[-141.436,-17.367],[-141.436,-17.371],[-141.435,-17.384],[-141.435,-17.389],[-141.437,-17.386],[-141.437,-17.383],[-141.439,-17.368]]],[[[-138.442,-17.366],[-138.461,-17.366],[-138.463,-17.36],[-138.464,-17.357],[-138.461,-17.35],[-138.447,-17.333],[-138.426,-17.325],[-138.455,-17.35],[-138.459,-17.357],[-138.458,-17.359],[-138.454,-17.36],[-138.448,-17.362],[-138.442,-17.366]]],[[[-143.085,-17.005],[-143.094,-16.998],[-143.098,-16.994],[-143.101,-16.99],[-143.09,-16.99],[-143.08,-16.993],[-143.07,-17],[-143.062,-17.009],[-143.068,-17.01],[-143.073,-17.009],[-143.079,-17.007],[-143.085,-17.005]]],[[[-149.584,-16.987],[-149.576,-16.984],[-149.572,-16.983],[-149.568,-16.982],[-149.572,-16.987],[-149.587,-17],[-149.587,-16.997],[-149.586,-16.994],[-149.584,-16.987]]],[[[-153.934,-16.798],[-153.929,-16.807],[-153.923,-16.821],[-153.92,-16.832],[-153.924,-16.832],[-153.933,-16.819],[-153.943,-16.788],[-153.951,-16.774],[-153.943,-16.775],[-153.938,-16.779],[-153.935,-16.787],[-153.934,-16.798]]],[[[-144.201,-16.648],[-144.198,-16.642],[-144.188,-16.646],[-144.177,-16.655],[-144.17,-16.667],[-144.178,-16.664],[-144.186,-16.659],[-144.201,-16.648]]],[[[-152.245,-16.444],[-152.256,-16.451],[-152.264,-16.447],[-152.261,-16.442],[-152.245,-16.444]]],[[[-145.899,-15.888],[-145.951,-15.84],[-145.914,-15.864],[-145.899,-15.878],[-145.899,-15.888]]],[[[-140.889,-15.82],[-140.861,-15.816],[-140.852,-15.816],[-140.86,-15.82],[-140.88,-15.838],[-140.889,-15.837],[-140.895,-15.833],[-140.896,-15.827],[-140.889,-15.82]]],[[[-148.251,-15.867],[-148.272,-15.853],[-148.279,-15.83],[-148.276,-15.81],[-148.262,-15.802],[-148.258,-15.808],[-148.246,-15.832],[-148.239,-15.84],[-148.23,-15.848],[-148.231,-15.857],[-148.239,-15.864],[-148.251,-15.867]]],[[[-146.487,-15.803],[-146.483,-15.815],[-146.482,-15.821],[-146.482,-15.827],[-146.491,-15.808],[-146.496,-15.799],[-146.503,-15.792],[-146.499,-15.794],[-146.487,-15.803]]],[[[-154.523,-15.819],[-154.521,-15.809],[-154.522,-15.8],[-154.528,-15.795],[-154.537,-15.792],[-154.525,-15.789],[-154.519,-15.796],[-154.517,-15.806],[-154.516,-15.817],[-154.519,-15.823],[-154.525,-15.828],[-154.529,-15.827],[-154.523,-15.819]]],[[[-144.65,-15.73],[-144.633,-15.728],[-144.622,-15.736],[-144.62,-15.747],[-144.631,-15.755],[-144.642,-15.755],[-144.649,-15.749],[-144.652,-15.74],[-144.65,-15.73]]],[[[-145.456,-15.48],[-145.444,-15.48],[-145.435,-15.483],[-145.433,-15.489],[-145.438,-15.496],[-145.457,-15.482],[-145.524,-15.47],[-145.55,-15.452],[-145.482,-15.475],[-145.456,-15.48]]],[[[-146.194,-15.359],[-146.203,-15.389],[-146.199,-15.37],[-146.196,-15.348],[-146.198,-15.339],[-146.204,-15.331],[-146.207,-15.329],[-146.217,-15.324],[-146.214,-15.323],[-146.205,-15.328],[-146.201,-15.33],[-146.197,-15.336],[-146.193,-15.346],[-146.194,-15.359]]],[[[-146.621,-15.24],[-146.639,-15.233],[-146.624,-15.235],[-146.612,-15.244],[-146.603,-15.257],[-146.598,-15.272],[-146.61,-15.256],[-146.621,-15.24]]],[[[-147.256,-15.233],[-147.242,-15.232],[-147.239,-15.235],[-147.237,-15.244],[-147.242,-15.239],[-147.246,-15.237],[-147.251,-15.235],[-147.256,-15.233]]],[[[-147.779,-15.216],[-147.774,-15.213],[-147.763,-15.219],[-147.75,-15.229],[-147.737,-15.235],[-147.779,-15.216]]],[[[-147.459,-15.121],[-147.512,-15.08],[-147.531,-15.069],[-147.511,-15.078],[-147.493,-15.091],[-147.459,-15.121]]],[[[-147.932,-15.081],[-147.934,-15.077],[-147.937,-15.074],[-147.938,-15.071],[-147.937,-15.066],[-147.932,-15.081]]],[[[-145.922,-14.434],[-145.933,-14.438],[-145.944,-14.442],[-145.955,-14.444],[-145.966,-14.443],[-145.933,-14.438],[-145.922,-14.434]]],[[[-141.175,-14.19],[-141.18,-14.196],[-141.189,-14.19],[-141.213,-14.165],[-141.203,-14.17],[-141.175,-14.19]]],[[[-147.724,-23.872],[-147.724,-23.865],[-147.706,-23.859],[-147.688,-23.855],[-147.648,-23.852],[-147.651,-23.859],[-147.656,-23.864],[-147.662,-23.868],[-147.669,-23.872],[-147.699,-23.878],[-147.713,-23.877],[-147.724,-23.872]]],[[[-149.482,-23.358],[-149.456,-23.365],[-149.451,-23.381],[-149.463,-23.396],[-149.508,-23.4],[-149.519,-23.395],[-149.525,-23.384],[-149.527,-23.368],[-149.521,-23.363],[-149.509,-23.36],[-149.482,-23.358]]],[[[-135.019,-23.118],[-134.998,-23.116],[-134.965,-23.091],[-134.943,-23.084],[-134.951,-23.097],[-134.985,-23.139],[-134.995,-23.137],[-135.005,-23.134],[-135.019,-23.125],[-135.019,-23.118]]],[[[-151.387,-22.422],[-151.378,-22.423],[-151.368,-22.434],[-151.359,-22.448],[-151.356,-22.457],[-151.357,-22.482],[-151.363,-22.508],[-151.369,-22.513],[-151.372,-22.514],[-151.376,-22.514],[-151.38,-22.489],[-151.391,-22.465],[-151.397,-22.442],[-151.387,-22.422]]],[[[-140.672,-21.659],[-140.653,-21.647],[-140.634,-21.661],[-140.604,-21.707],[-140.631,-21.722],[-140.658,-21.713],[-140.676,-21.689],[-140.672,-21.659]]],[[[-140.679,-17.78],[-140.727,-17.807],[-140.758,-17.832],[-140.785,-17.859],[-140.796,-17.863],[-140.812,-17.863],[-140.828,-17.86],[-140.837,-17.855],[-140.839,-17.843],[-140.834,-17.83],[-140.823,-17.807],[-140.802,-17.787],[-140.782,-17.752],[-140.746,-17.73],[-140.672,-17.698],[-140.652,-17.684],[-140.625,-17.687],[-140.62,-17.707],[-140.628,-17.728],[-140.648,-17.744],[-140.679,-17.78]]],[[[-149.183,-17.731],[-149.161,-17.757],[-149.149,-17.802],[-149.156,-17.846],[-149.19,-17.869],[-149.206,-17.867],[-149.261,-17.852],[-149.276,-17.845],[-149.309,-17.804],[-149.334,-17.759],[-149.343,-17.725],[-149.348,-17.718],[-149.358,-17.718],[-149.363,-17.725],[-149.366,-17.734],[-149.372,-17.739],[-149.392,-17.741],[-149.45,-17.759],[-149.472,-17.761],[-149.488,-17.758],[-149.519,-17.746],[-149.576,-17.738],[-149.588,-17.731],[-149.605,-17.672],[-149.612,-17.663],[-149.621,-17.656],[-149.631,-17.639],[-149.639,-17.619],[-149.642,-17.601],[-149.633,-17.553],[-149.604,-17.526],[-149.564,-17.51],[-149.519,-17.498],[-149.475,-17.494],[-149.43,-17.502],[-149.388,-17.518],[-149.354,-17.54],[-149.344,-17.551],[-149.336,-17.564],[-149.33,-17.58],[-149.327,-17.598],[-149.33,-17.664],[-149.327,-17.684],[-149.304,-17.712],[-149.263,-17.723],[-149.183,-17.731]]],[[[-149.797,-17.464],[-149.786,-17.469],[-149.786,-17.479],[-149.805,-17.523],[-149.822,-17.55],[-149.843,-17.568],[-149.862,-17.567],[-149.885,-17.555],[-149.914,-17.535],[-149.937,-17.512],[-149.944,-17.492],[-149.934,-17.482],[-149.916,-17.474],[-149.898,-17.472],[-149.89,-17.482],[-149.886,-17.492],[-149.878,-17.492],[-149.87,-17.488],[-149.868,-17.485],[-149.86,-17.483],[-149.854,-17.479],[-149.846,-17.478],[-149.835,-17.485],[-149.832,-17.473],[-149.823,-17.467],[-149.811,-17.465],[-149.797,-17.464]]],[[[-151.006,-16.769],[-151.002,-16.761],[-150.994,-16.762],[-150.985,-16.769],[-150.979,-16.78],[-150.978,-16.788],[-150.98,-16.8],[-150.984,-16.809],[-150.993,-16.807],[-150.995,-16.814],[-150.999,-16.818],[-151.005,-16.82],[-151.013,-16.821],[-151.031,-16.806],[-151.038,-16.8],[-151.04,-16.79],[-151.035,-16.777],[-151.023,-16.773],[-151.011,-16.772],[-151.006,-16.769]]],[[[-151.479,-16.738],[-151.465,-16.736],[-151.447,-16.74],[-151.431,-16.748],[-151.424,-16.755],[-151.413,-16.78],[-151.352,-16.859],[-151.364,-16.866],[-151.401,-16.885],[-151.414,-16.889],[-151.424,-16.882],[-151.429,-16.882],[-151.432,-16.892],[-151.434,-16.898],[-151.441,-16.901],[-151.449,-16.903],[-151.458,-16.903],[-151.478,-16.89],[-151.488,-16.856],[-151.495,-16.765],[-151.491,-16.75],[-151.479,-16.738]]],[[[-151.026,-16.708],[-151.008,-16.74],[-151.01,-16.746],[-151.016,-16.749],[-151.024,-16.756],[-151.034,-16.763],[-151.047,-16.766],[-151.053,-16.754],[-151.054,-16.742],[-151.052,-16.73],[-151.042,-16.705],[-151.035,-16.694],[-151.029,-16.692],[-151.026,-16.708]]],[[[-151.458,-16.629],[-151.46,-16.661],[-151.463,-16.674],[-151.473,-16.67],[-151.481,-16.665],[-151.535,-16.642],[-151.54,-16.636],[-151.541,-16.631],[-151.536,-16.595],[-151.524,-16.583],[-151.503,-16.58],[-151.473,-16.58],[-151.477,-16.591],[-151.479,-16.594],[-151.46,-16.593],[-151.45,-16.595],[-151.445,-16.598],[-151.444,-16.602],[-151.439,-16.609],[-151.438,-16.615],[-151.441,-16.62],[-151.448,-16.624],[-151.458,-16.629]]],[[[-151.78,-16.478],[-151.764,-16.472],[-151.754,-16.484],[-151.748,-16.504],[-151.747,-16.526],[-151.763,-16.526],[-151.777,-16.512],[-151.784,-16.493],[-151.78,-16.478]]],[[[-146.387,-16.108],[-146.359,-16.1],[-146.338,-16.113],[-146.329,-16.138],[-146.339,-16.163],[-146.367,-16.159],[-146.392,-16.147],[-146.402,-16.13],[-146.387,-16.108]]],[[[-138.699,-10.426],[-138.665,-10.427],[-138.65,-10.431],[-138.637,-10.441],[-138.62,-10.472],[-138.62,-10.511],[-138.637,-10.542],[-138.671,-10.55],[-138.686,-10.542],[-138.693,-10.526],[-138.694,-10.508],[-138.68,-10.474],[-138.682,-10.458],[-138.699,-10.426]]],[[[-139.082,-9.9],[-139.069,-9.904],[-139.056,-9.913],[-139.048,-9.923],[-139.051,-9.927],[-139.055,-9.928],[-139.058,-9.932],[-139.06,-9.937],[-139.062,-9.94],[-139.067,-9.943],[-139.077,-9.945],[-139.082,-9.947],[-139.096,-9.962],[-139.118,-10],[-139.131,-10.015],[-139.144,-9.998],[-139.143,-9.979],[-139.139,-9.959],[-139.144,-9.94],[-139.134,-9.928],[-139.121,-9.904],[-139.104,-9.888],[-139.082,-9.9]]],[[[-138.837,-9.741],[-138.814,-9.74],[-138.818,-9.749],[-138.869,-9.792],[-138.892,-9.801],[-138.917,-9.807],[-138.956,-9.81],[-139.009,-9.809],[-139.021,-9.806],[-139.026,-9.803],[-139.038,-9.802],[-139.05,-9.803],[-139.055,-9.806],[-139.055,-9.837],[-139.062,-9.854],[-139.071,-9.855],[-139.086,-9.849],[-139.126,-9.84],[-139.143,-9.829],[-139.157,-9.815],[-139.165,-9.803],[-139.17,-9.79],[-139.173,-9.774],[-139.169,-9.761],[-139.138,-9.751],[-139.051,-9.701],[-139.015,-9.694],[-138.985,-9.699],[-138.973,-9.721],[-138.961,-9.734],[-138.943,-9.742],[-138.921,-9.747],[-138.901,-9.749],[-138.877,-9.754],[-138.867,-9.755],[-138.855,-9.754],[-138.848,-9.749],[-138.842,-9.744],[-138.837,-9.741]]],[[[-140.077,-9.323],[-140.054,-9.346],[-140.041,-9.351],[-140.028,-9.344],[-140.041,-9.374],[-140.049,-9.408],[-140.063,-9.436],[-140.093,-9.448],[-140.111,-9.438],[-140.159,-9.372],[-140.139,-9.358],[-140.121,-9.34],[-140.102,-9.326],[-140.077,-9.323]]],[[[-139.514,-8.884],[-139.503,-8.899],[-139.508,-8.912],[-139.523,-8.922],[-139.542,-8.926],[-139.586,-8.929],[-139.603,-8.937],[-139.617,-8.954],[-139.613,-8.939],[-139.618,-8.925],[-139.626,-8.911],[-139.63,-8.895],[-139.597,-8.858],[-139.589,-8.858],[-139.582,-8.869],[-139.574,-8.87],[-139.558,-8.865],[-139.547,-8.867],[-139.514,-8.884]]],[[[-140.049,-8.823],[-140.022,-8.847],[-140.016,-8.859],[-140.014,-8.881],[-140.019,-8.896],[-140.031,-8.894],[-140.056,-8.879],[-140.061,-8.9],[-140.077,-8.915],[-140.096,-8.919],[-140.11,-8.906],[-140.118,-8.906],[-140.13,-8.916],[-140.17,-8.929],[-140.179,-8.937],[-140.183,-8.954],[-140.194,-8.95],[-140.207,-8.939],[-140.228,-8.927],[-140.235,-8.913],[-140.245,-8.867],[-140.247,-8.847],[-140.25,-8.839],[-140.259,-8.83],[-140.261,-8.823],[-140.248,-8.787],[-140.217,-8.781],[-140.09,-8.802],[-140.059,-8.802],[-140.051,-8.8],[-140.037,-8.792],[-140.028,-8.789],[-140.028,-8.794],[-140.03,-8.796],[-140.032,-8.799],[-140.039,-8.807],[-140.049,-8.823]]],[[[-140.692,-8.015],[-140.699,-8.029],[-140.708,-8.04],[-140.718,-8.041],[-140.727,-8.028],[-140.728,-7.991],[-140.706,-7.963],[-140.673,-7.95],[-140.638,-7.96],[-140.653,-7.971],[-140.658,-7.973],[-140.676,-7.977],[-140.684,-7.985],[-140.692,-8.015]]],[[[-144.284,-27.579],[-144.288,-27.584],[-144.301,-27.595],[-144.304,-27.6],[-144.304,-27.601],[-144.3,-27.62],[-144.297,-27.621],[-144.304,-27.632],[-144.313,-27.64],[-144.324,-27.641],[-144.338,-27.634],[-144.347,-27.615],[-144.348,-27.586],[-144.339,-27.559],[-144.318,-27.551],[-144.298,-27.563],[-144.29,-27.57],[-144.284,-27.579]]],[[[-138.85,-21.871],[-138.932,-21.871],[-138.912,-21.864],[-138.892,-21.866],[-138.871,-21.87],[-138.85,-21.871]]],[[[-135.458,-21.528],[-135.526,-21.487],[-135.504,-21.49],[-135.485,-21.497],[-135.469,-21.509],[-135.458,-21.528]]],[[[-138.535,-20.877],[-138.519,-20.861],[-138.517,-20.849],[-138.541,-20.79],[-138.545,-20.785],[-138.55,-20.783],[-138.568,-20.788],[-138.564,-20.785],[-138.554,-20.781],[-138.549,-20.78],[-138.543,-20.78],[-138.52,-20.815],[-138.513,-20.858],[-138.535,-20.877]]],[[[-136.314,-18.567],[-136.314,-18.566],[-136.313,-18.561],[-136.313,-18.554],[-136.316,-18.546],[-136.322,-18.539],[-136.331,-18.533],[-136.344,-18.527],[-136.374,-18.519],[-136.383,-18.515],[-136.389,-18.51],[-136.394,-18.504],[-136.403,-18.497],[-136.449,-18.472],[-136.461,-18.469],[-136.465,-18.474],[-136.465,-18.482],[-136.464,-18.486],[-136.468,-18.482],[-136.47,-18.478],[-136.473,-18.474],[-136.479,-18.472],[-136.459,-18.464],[-136.426,-18.475],[-136.396,-18.494],[-136.382,-18.51],[-136.33,-18.528],[-136.305,-18.546],[-136.314,-18.567]]],[[[-140.672,-18.417],[-140.675,-18.414],[-140.681,-18.402],[-140.695,-18.39],[-140.752,-18.364],[-140.77,-18.35],[-140.779,-18.34],[-140.782,-18.335],[-140.756,-18.354],[-140.687,-18.391],[-140.679,-18.403],[-140.672,-18.417]]],[[[-136.971,-18.362],[-137.068,-18.266],[-137.042,-18.278],[-137.01,-18.304],[-136.983,-18.336],[-136.971,-18.362]]],[[[-140.823,-18.218],[-140.848,-18.183],[-140.895,-18.149],[-140.918,-18.108],[-140.93,-18.096],[-140.974,-18.06],[-140.964,-18.067],[-140.925,-18.085],[-140.899,-18.129],[-140.877,-18.151],[-140.851,-18.17],[-140.83,-18.19],[-140.823,-18.218]]],[[[-142.577,-17.621],[-142.565,-17.602],[-142.64,-17.533],[-142.612,-17.547],[-142.578,-17.572],[-142.558,-17.599],[-142.577,-17.621]]],[[[-143.414,-17.457],[-143.438,-17.439],[-143.475,-17.43],[-143.457,-17.429],[-143.438,-17.433],[-143.422,-17.442],[-143.414,-17.457]]],[[[-145.38,-17.485],[-145.435,-17.417],[-145.419,-17.427],[-145.406,-17.443],[-145.38,-17.485]]],[[[-145.578,-17.383],[-145.586,-17.37],[-145.591,-17.358],[-145.593,-17.343],[-145.593,-17.325],[-145.578,-17.383]]],[[[-143.386,-16.67],[-143.454,-16.625],[-143.506,-16.627],[-143.551,-16.622],[-143.465,-16.615],[-143.441,-16.621],[-143.42,-16.636],[-143.386,-16.67]]],[[[-143.571,-16.636],[-143.62,-16.632],[-143.66,-16.602],[-143.702,-16.58],[-143.666,-16.588],[-143.61,-16.63],[-143.571,-16.636]]],[[[-143.818,-16.54],[-143.821,-16.538],[-143.849,-16.493],[-143.88,-16.469],[-143.914,-16.457],[-143.934,-16.45],[-143.93,-16.45],[-143.91,-16.455],[-143.878,-16.46],[-143.862,-16.467],[-143.833,-16.498],[-143.823,-16.516],[-143.818,-16.54]]],[[[-144.256,-16.478],[-144.259,-16.458],[-144.261,-16.451],[-144.291,-16.416],[-144.276,-16.426],[-144.26,-16.442],[-144.251,-16.461],[-144.256,-16.478]]],[[[-144.373,-16.34],[-144.406,-16.329],[-144.426,-16.333],[-144.435,-16.32],[-144.428,-16.321],[-144.427,-16.322],[-144.428,-16.327],[-144.412,-16.321],[-144.396,-16.324],[-144.382,-16.332],[-144.373,-16.34]]],[[[-145.482,-16.348],[-145.502,-16.337],[-145.53,-16.279],[-145.553,-16.252],[-145.577,-16.203],[-145.59,-16.152],[-145.607,-16.129],[-145.614,-16.08],[-145.611,-16.097],[-145.604,-16.12],[-145.593,-16.14],[-145.582,-16.149],[-145.577,-16.161],[-145.568,-16.213],[-145.562,-16.224],[-145.559,-16.233],[-145.517,-16.279],[-145.494,-16.335],[-145.482,-16.348]]],[[[-145.614,-16.053],[-145.709,-16.06],[-145.658,-16.043],[-145.631,-16.038],[-145.614,-16.053]]],[[[-142.53,-16.108],[-142.522,-16.084],[-142.51,-16.059],[-142.495,-16.036],[-142.481,-16.019],[-142.53,-16.108]]],[[[-140.11,-15.977],[-140.117,-15.962],[-140.143,-15.961],[-140.172,-15.977],[-140.152,-15.958],[-140.125,-15.953],[-140.107,-15.961],[-140.11,-15.977]]],[[[-145.168,-15.95],[-145.236,-15.888],[-145.22,-15.898],[-145.168,-15.95]]],[[[-145.058,-15.902],[-145.076,-15.859],[-145.13,-15.778],[-145.161,-15.758],[-145.134,-15.763],[-145.118,-15.781],[-145.093,-15.826],[-145.067,-15.856],[-145.059,-15.876],[-145.058,-15.902]]],[[[-148.046,-14.998],[-148.054,-14.985],[-148.066,-14.971],[-148.084,-14.955],[-148.111,-14.94],[-148.176,-14.922],[-148.134,-14.925],[-148.089,-14.937],[-148.055,-14.96],[-148.046,-14.998]]],[[[-148.628,-14.895],[-148.648,-14.872],[-148.691,-14.854],[-148.668,-14.857],[-148.641,-14.865],[-148.623,-14.878],[-148.628,-14.895]]],[[[-145.195,-14.662],[-145.205,-14.675],[-145.223,-14.688],[-145.243,-14.698],[-145.26,-14.702],[-145.264,-14.69],[-145.253,-14.663],[-145.23,-14.62],[-145.25,-14.671],[-145.255,-14.693],[-145.234,-14.688],[-145.195,-14.662]]],[[[-146.257,-14.497],[-146.246,-14.476],[-146.239,-14.456],[-146.271,-14.435],[-146.243,-14.439],[-146.232,-14.457],[-146.236,-14.479],[-146.257,-14.497]]],[[[-145.003,-14.511],[-144.955,-14.463],[-144.911,-14.44],[-144.888,-14.418],[-144.913,-14.428],[-144.956,-14.432],[-145.003,-14.443],[-144.985,-14.432],[-144.962,-14.426],[-144.918,-14.422],[-144.897,-14.412],[-144.885,-14.408],[-144.88,-14.412],[-144.881,-14.422],[-144.883,-14.427],[-144.903,-14.442],[-144.935,-14.46],[-144.945,-14.463],[-144.955,-14.47],[-144.986,-14.501],[-145.003,-14.511]]],[[[-145.847,-14.367],[-145.843,-14.347],[-145.86,-14.344],[-145.914,-14.347],[-145.858,-14.337],[-145.835,-14.343],[-145.847,-14.367]]],[[[-136.739,-21.317],[-136.74,-21.32],[-136.742,-21.32],[-136.747,-21.316],[-136.745,-21.316],[-136.741,-21.317],[-136.739,-21.317]]],[[[-139.135,-20.8],[-139.141,-20.803],[-139.145,-20.804],[-139.148,-20.805],[-139.136,-20.8],[-139.135,-20.8]]],[[[-144.107,-16.724],[-144.08,-16.717],[-144.063,-16.731],[-144.054,-16.75],[-144.051,-16.759],[-144.063,-16.749],[-144.076,-16.73],[-144.091,-16.722],[-144.111,-16.74],[-144.111,-16.735],[-144.111,-16.732],[-144.107,-16.724]]]]}},{"type":"Feature","properties":{"name":"Wallis și Futuna","parentIso":"FRA","iso":"WLF"},"geometry":{"type":"MultiPolygon","coordinates":[[[[-178.142,-14.244],[-178.108,-14.279],[-178.105,-14.285],[-178.092,-14.289],[-178.047,-14.313],[-178.047,-14.319],[-178.1,-14.316],[-178.109,-14.319],[-178.121,-14.314],[-178.147,-14.31],[-178.157,-14.305],[-178.175,-14.277],[-178.186,-14.248],[-178.178,-14.233],[-178.142,-14.244]]],[[[-176.155,-13.209],[-176.143,-13.231],[-176.131,-13.248],[-176.126,-13.264],[-176.136,-13.285],[-176.132,-13.289],[-176.131,-13.291],[-176.128,-13.298],[-176.144,-13.301],[-176.148,-13.31],[-176.142,-13.336],[-176.147,-13.348],[-176.159,-13.35],[-176.173,-13.346],[-176.183,-13.339],[-176.184,-13.324],[-176.195,-13.307],[-176.2,-13.291],[-176.183,-13.278],[-176.19,-13.257],[-176.184,-13.238],[-176.17,-13.221],[-176.155,-13.209]]]]}},{"type":"Feature","properties":{"name":"Gibraltar","parentIso":"GBR","iso":"GIB"},"geometry":{"type":"Polygon","coordinates":[[[-5.358,36.141],[-5.339,36.141],[-5.34,36.13],[-5.339,36.124],[-5.342,36.111],[-5.35,36.119],[-5.358,36.141]]]}},{"type":"Feature","properties":{"name":"Bermuda","parentIso":"GBR","iso":"BMU"},"geometry":{"type":"MultiPolygon","coordinates":[[[[-64.676,32.389],[-64.648,32.368],[-64.655,32.359],[-64.656,32.35],[-64.66,32.353],[-64.667,32.359],[-64.681,32.362],[-64.685,32.357],[-64.691,32.364],[-64.708,32.352],[-64.705,32.343],[-64.695,32.34],[-64.678,32.335],[-64.698,32.326],[-64.717,32.316],[-64.741,32.3],[-64.755,32.293],[-64.764,32.283],[-64.783,32.267],[-64.809,32.256],[-64.834,32.248],[-64.849,32.248],[-64.861,32.249],[-64.876,32.258],[-64.883,32.272],[-64.886,32.283],[-64.877,32.279],[-64.878,32.286],[-64.875,32.296],[-64.88,32.305],[-64.872,32.303],[-64.869,32.309],[-64.864,32.303],[-64.858,32.298],[-64.867,32.291],[-64.87,32.28],[-64.872,32.276],[-64.867,32.273],[-64.849,32.271],[-64.849,32.268],[-64.863,32.269],[-64.864,32.262],[-64.858,32.255],[-64.847,32.255],[-64.833,32.26],[-64.829,32.267],[-64.82,32.267],[-64.803,32.276],[-64.781,32.288],[-64.779,32.291],[-64.795,32.29],[-64.805,32.293],[-64.814,32.304],[-64.811,32.308],[-64.78,32.303],[-64.762,32.311],[-64.751,32.314],[-64.74,32.324],[-64.736,32.323],[-64.719,32.324],[-64.714,32.329],[-64.705,32.336],[-64.713,32.343],[-64.725,32.339],[-64.733,32.334],[-64.735,32.328],[-64.739,32.329],[-64.742,32.333],[-64.736,32.344],[-64.722,32.353],[-64.713,32.364],[-64.697,32.374],[-64.676,32.389]]],[[[-64.815,32.289],[-64.812,32.29],[-64.808,32.286],[-64.8,32.283],[-64.803,32.281],[-64.811,32.282],[-64.82,32.281],[-64.83,32.282],[-64.833,32.287],[-64.829,32.289],[-64.821,32.287],[-64.815,32.289]]]]}},{"type":"Feature","properties":{"name":"Insulele Cayman","parentIso":"GBR","iso":"CYM"},"geometry":{"type":"MultiPolygon","coordinates":[[[[-81.136,19.355],[-81.118,19.353],[-81.1,19.347],[-81.09,19.335],[-81.087,19.31],[-81.107,19.295],[-81.135,19.291],[-81.17,19.3],[-81.193,19.296],[-81.215,19.293],[-81.233,19.289],[-81.249,19.279],[-81.266,19.266],[-81.276,19.265],[-81.341,19.273],[-81.358,19.274],[-81.376,19.272],[-81.387,19.264],[-81.398,19.274],[-81.396,19.29],[-81.392,19.296],[-81.389,19.308],[-81.385,19.324],[-81.386,19.339],[-81.39,19.352],[-81.406,19.363],[-81.417,19.37],[-81.414,19.382],[-81.408,19.39],[-81.394,19.395],[-81.376,19.389],[-81.379,19.376],[-81.369,19.359],[-81.361,19.34],[-81.364,19.32],[-81.35,19.302],[-81.322,19.302],[-81.303,19.309],[-81.301,19.321],[-81.294,19.334],[-81.288,19.331],[-81.273,19.328],[-81.273,19.332],[-81.275,19.335],[-81.28,19.342],[-81.273,19.334],[-81.275,19.339],[-81.278,19.341],[-81.278,19.344],[-81.273,19.348],[-81.278,19.352],[-81.281,19.356],[-81.286,19.368],[-81.268,19.366],[-81.232,19.352],[-81.212,19.348],[-81.158,19.355],[-81.136,19.355]]],[[[-80.038,19.704],[-80.009,19.704],[-79.981,19.714],[-79.964,19.705],[-79.968,19.703],[-79.978,19.697],[-80.004,19.69],[-80.078,19.654],[-80.113,19.659],[-80.099,19.677],[-80.082,19.686],[-80.062,19.701],[-80.038,19.704]]],[[[-79.872,19.705],[-79.803,19.733],[-79.769,19.752],[-79.746,19.758],[-79.732,19.752],[-79.727,19.737],[-79.774,19.713],[-79.855,19.691],[-79.894,19.68],[-79.872,19.705]]]]}},{"type":"Feature","properties":{"name":"Turks și Caicos","parentIso":"GBR","iso":"TCA"},"geometry":{"type":"MultiPolygon","coordinates":[[[[-72.461,21.705],[-72.433,21.709],[-72.433,21.68],[-72.452,21.645],[-72.481,21.63],[-72.481,21.637],[-72.47,21.647],[-72.463,21.665],[-72.46,21.686],[-72.461,21.705]]],[[[-71.508,21.705],[-71.529,21.717],[-71.573,21.735],[-71.591,21.754],[-71.586,21.757],[-71.582,21.758],[-71.578,21.761],[-71.576,21.767],[-71.543,21.747],[-71.526,21.74],[-71.501,21.733],[-71.481,21.725],[-71.462,21.711],[-71.452,21.69],[-71.46,21.664],[-71.471,21.662],[-71.485,21.675],[-71.508,21.705]]],[[[-71.803,21.788],[-71.828,21.786],[-71.836,21.791],[-71.844,21.808],[-71.848,21.819],[-71.851,21.856],[-71.842,21.856],[-71.834,21.854],[-71.826,21.851],[-71.809,21.84],[-71.8,21.84],[-71.791,21.842],[-71.782,21.843],[-71.72,21.836],[-71.692,21.841],[-71.679,21.842],[-71.666,21.836],[-71.655,21.823],[-71.631,21.774],[-71.648,21.78],[-71.659,21.794],[-71.668,21.81],[-71.679,21.822],[-71.671,21.8],[-71.652,21.765],[-71.645,21.746],[-71.659,21.744],[-71.669,21.75],[-71.686,21.774],[-71.692,21.764],[-71.694,21.76],[-71.7,21.76],[-71.715,21.787],[-71.741,21.795],[-71.803,21.788]]],[[[-72.337,21.801],[-72.34,21.814],[-72.33,21.845],[-72.33,21.862],[-72.308,21.852],[-72.245,21.798],[-72.232,21.793],[-72.212,21.793],[-72.193,21.797],[-72.18,21.801],[-72.165,21.814],[-72.157,21.825],[-72.146,21.827],[-72.124,21.815],[-72.124,21.808],[-72.151,21.784],[-72.159,21.774],[-72.164,21.789],[-72.165,21.795],[-72.193,21.781],[-72.19,21.78],[-72.186,21.779],[-72.183,21.778],[-72.18,21.774],[-72.194,21.767],[-72.22,21.77],[-72.234,21.767],[-72.234,21.781],[-72.274,21.751],[-72.292,21.749],[-72.303,21.774],[-72.297,21.774],[-72.291,21.766],[-72.281,21.762],[-72.274,21.764],[-72.275,21.774],[-72.281,21.78],[-72.316,21.795],[-72.313,21.781],[-72.315,21.771],[-72.324,21.764],[-72.337,21.76],[-72.34,21.767],[-72.34,21.771],[-72.339,21.775],[-72.337,21.781],[-72.336,21.777],[-72.335,21.776],[-72.334,21.776],[-72.33,21.774],[-72.327,21.787],[-72.314,21.809],[-72.31,21.822],[-72.331,21.807],[-72.337,21.801]]],[[[-72.022,21.905],[-72.026,21.914],[-72.024,21.924],[-72.025,21.933],[-72.036,21.939],[-72.032,21.946],[-72.025,21.953],[-72.017,21.957],[-72.008,21.959],[-71.95,21.959],[-71.944,21.958],[-71.93,21.953],[-71.923,21.952],[-71.911,21.948],[-71.909,21.94],[-71.912,21.925],[-71.903,21.867],[-71.889,21.846],[-71.857,21.843],[-71.877,21.828],[-71.895,21.832],[-71.91,21.843],[-71.923,21.849],[-71.931,21.852],[-71.943,21.858],[-71.954,21.867],[-71.961,21.877],[-71.959,21.89],[-71.944,21.913],[-71.94,21.925],[-71.948,21.942],[-71.964,21.933],[-71.988,21.908],[-71.992,21.9],[-72.002,21.898],[-72.013,21.9],[-72.022,21.905]]],[[[-71.138,21.514],[-71.13,21.498],[-71.129,21.472],[-71.134,21.446],[-71.145,21.432],[-71.152,21.451],[-71.151,21.473],[-71.145,21.495],[-71.138,21.514]]],[[[-71.688,21.3],[-71.68,21.304],[-71.674,21.307],[-71.679,21.299],[-71.696,21.29],[-71.699,21.292],[-71.688,21.3]]],[[[-71.634,21.319],[-71.629,21.324],[-71.628,21.31],[-71.635,21.295],[-71.641,21.303],[-71.634,21.319]]],[[[-71.21,21.341],[-71.2,21.341],[-71.192,21.335],[-71.201,21.323],[-71.214,21.311],[-71.219,21.314],[-71.214,21.333],[-71.21,21.341]]],[[[-71.498,21.569],[-71.496,21.563],[-71.497,21.53],[-71.496,21.507],[-71.504,21.494],[-71.521,21.489],[-71.538,21.499],[-71.54,21.517],[-71.528,21.524],[-71.516,21.523],[-71.509,21.528],[-71.509,21.552],[-71.502,21.569],[-71.498,21.569]]],[[[-72.125,21.855],[-72.119,21.858],[-72.116,21.854],[-72.124,21.847],[-72.133,21.848],[-72.125,21.855]]],[[[-72.095,21.883],[-72.09,21.885],[-72.087,21.881],[-72.087,21.873],[-72.093,21.867],[-72.1,21.865],[-72.102,21.872],[-72.095,21.883]]]]}},{"type":"Feature","properties":{"name":"Insulele Virgine Britanice","parentIso":"GBR","iso":"VGB"},"geometry":{"type":"MultiPolygon","coordinates":[[[[-64.635,18.406],[-64.644,18.394],[-64.66,18.383],[-64.675,18.384],[-64.69,18.385],[-64.714,18.386],[-64.701,18.398],[-64.683,18.4],[-64.674,18.412],[-64.666,18.424],[-64.662,18.44],[-64.642,18.451],[-64.627,18.447],[-64.604,18.452],[-64.593,18.449],[-64.56,18.454],[-64.527,18.449],[-64.517,18.439],[-64.52,18.434],[-64.532,18.436],[-64.549,18.44],[-64.561,18.434],[-64.566,18.426],[-64.574,18.419],[-64.583,18.416],[-64.591,18.418],[-64.597,18.421],[-64.603,18.423],[-64.613,18.423],[-64.613,18.42],[-64.621,18.412],[-64.63,18.405],[-64.635,18.406]]],[[[-64.381,18.481],[-64.389,18.471],[-64.408,18.457],[-64.429,18.445],[-64.443,18.443],[-64.419,18.475],[-64.412,18.491],[-64.415,18.512],[-64.411,18.512],[-64.408,18.51],[-64.406,18.508],[-64.402,18.506],[-64.347,18.507],[-64.326,18.512],[-64.334,18.497],[-64.353,18.487],[-64.372,18.482],[-64.381,18.481]]],[[[-64.337,18.724],[-64.381,18.726],[-64.399,18.732],[-64.409,18.745],[-64.32,18.746],[-64.285,18.734],[-64.271,18.701],[-64.28,18.701],[-64.337,18.724]]],[[[-64.569,18.358],[-64.568,18.351],[-64.568,18.337],[-64.571,18.335],[-64.575,18.343],[-64.585,18.349],[-64.601,18.352],[-64.603,18.356],[-64.594,18.358],[-64.587,18.358],[-64.583,18.359],[-64.578,18.361],[-64.569,18.358]]],[[[-64.73,18.453],[-64.728,18.45],[-64.724,18.443],[-64.73,18.438],[-64.759,18.442],[-64.774,18.442],[-64.768,18.45],[-64.743,18.455],[-64.73,18.453]]],[[[-64.533,18.494],[-64.53,18.493],[-64.529,18.482],[-64.529,18.476],[-64.532,18.467],[-64.537,18.462],[-64.538,18.465],[-64.537,18.472],[-64.539,18.483],[-64.538,18.491],[-64.533,18.494]]]]}},{"type":"Feature","properties":{"name":"Anguilla","parentIso":"GBR","iso":"AIA"},"geometry":{"type":"MultiPolygon","coordinates":[[[[-63.007,18.273],[-62.984,18.276],[-62.973,18.276],[-62.973,18.269],[-62.993,18.237],[-63.001,18.227],[-63.012,18.22],[-63.038,18.213],[-63.1,18.176],[-63.102,18.18],[-63.109,18.185],[-63.114,18.19],[-63.137,18.173],[-63.151,18.169],[-63.168,18.169],[-63.142,18.198],[-63.134,18.204],[-63.123,18.208],[-63.097,18.212],[-63.086,18.218],[-63.068,18.236],[-63.055,18.254],[-63.038,18.268],[-63.007,18.273]]],[[[-63.428,18.593],[-63.429,18.601],[-63.424,18.6],[-63.428,18.593]]],[[[-62.958,18.289],[-62.951,18.292],[-62.948,18.297],[-62.934,18.295],[-62.926,18.29],[-62.932,18.287],[-62.945,18.284],[-62.947,18.28],[-62.957,18.274],[-62.96,18.278],[-62.956,18.282],[-62.958,18.289]]],[[[-63.252,18.273],[-63.261,18.276],[-63.263,18.282],[-63.254,18.287],[-63.246,18.283],[-63.236,18.283],[-63.252,18.273]]],[[[-63.185,18.268],[-63.179,18.267],[-63.184,18.265],[-63.187,18.265],[-63.19,18.267],[-63.192,18.269],[-63.19,18.269],[-63.186,18.268],[-63.185,18.268]]],[[[-63.174,18.265],[-63.172,18.265],[-63.171,18.266],[-63.169,18.265],[-63.168,18.262],[-63.171,18.261],[-63.174,18.262],[-63.174,18.265]]]]}},{"type":"Feature","properties":{"name":"Montserrat","parentIso":"GBR","iso":"MSR"},"geometry":{"type":"Polygon","coordinates":[[[-62.147,16.744],[-62.148,16.737],[-62.152,16.725],[-62.151,16.72],[-62.148,16.716],[-62.144,16.709],[-62.141,16.702],[-62.141,16.696],[-62.144,16.688],[-62.15,16.682],[-62.158,16.677],[-62.168,16.675],[-62.219,16.689],[-62.23,16.728],[-62.219,16.776],[-62.202,16.819],[-62.189,16.814],[-62.183,16.813],[-62.175,16.813],[-62.179,16.795],[-62.17,16.777],[-62.156,16.76],[-62.147,16.744]]]}},{"type":"Feature","properties":{"name":"Saint Helena","parentIso":"GBR","iso":"SHN"},"geometry":{"type":"MultiPolygon","coordinates":[[[[-9.926,-40.349],[-9.906,-40.364],[-9.9,-40.372],[-9.895,-40.386],[-9.925,-40.398],[-9.965,-40.383],[-10.039,-40.339],[-10.039,-40.332],[-10.03,-40.314],[-10.022,-40.307],[-10.009,-40.304],[-9.963,-40.302],[-9.95,-40.304],[-9.943,-40.312],[-9.932,-40.339],[-9.926,-40.349]]],[[[-12.307,-37.07],[-12.297,-37.059],[-12.292,-37.056],[-12.245,-37.059],[-12.228,-37.068],[-12.213,-37.08],[-12.191,-37.091],[-12.196,-37.099],[-12.2,-37.104],[-12.205,-37.108],[-12.212,-37.111],[-12.245,-37.138],[-12.264,-37.149],[-12.277,-37.149],[-12.304,-37.126],[-12.335,-37.104],[-12.326,-37.095],[-12.307,-37.07]]],[[[-5.722,-15.909],[-5.71,-15.907],[-5.68,-15.907],[-5.667,-15.902],[-5.658,-15.92],[-5.652,-15.935],[-5.65,-15.949],[-5.654,-15.964],[-5.663,-15.98],[-5.674,-15.988],[-5.687,-15.995],[-5.702,-16.005],[-5.704,-15.999],[-5.708,-15.996],[-5.712,-15.994],[-5.716,-15.991],[-5.73,-16.005],[-5.746,-16.014],[-5.764,-16.016],[-5.78,-16.008],[-5.79,-15.995],[-5.787,-15.984],[-5.78,-15.973],[-5.777,-15.96],[-5.77,-15.945],[-5.755,-15.93],[-5.737,-15.917],[-5.722,-15.909]]],[[[-14.356,-7.885],[-14.347,-7.9],[-14.31,-7.928],[-14.295,-7.945],[-14.305,-7.952],[-14.328,-7.962],[-14.339,-7.97],[-14.35,-7.975],[-14.379,-7.976],[-14.391,-7.98],[-14.406,-7.974],[-14.411,-7.963],[-14.412,-7.95],[-14.418,-7.939],[-14.407,-7.924],[-14.391,-7.889],[-14.377,-7.878],[-14.374,-7.885],[-14.37,-7.889],[-14.365,-7.889],[-14.356,-7.885]]]]}},{"type":"Feature","properties":{"name":"Pitcairn","parentIso":"GBR","iso":"PCN"},"geometry":{"type":"MultiPolygon","coordinates":[[[[-130.12,-25.068],[-130.11,-25.064],[-130.101,-25.064],[-130.093,-25.068],[-130.086,-25.075],[-130.096,-25.077],[-130.105,-25.077],[-130.114,-25.074],[-130.12,-25.068]]],[[[-124.786,-24.665],[-124.797,-24.667],[-124.787,-24.664],[-124.786,-24.664],[-124.781,-24.665],[-124.779,-24.667],[-124.778,-24.673],[-124.779,-24.669],[-124.781,-24.667],[-124.785,-24.664],[-124.786,-24.665]]],[[[-128.33,-24.324],[-128.304,-24.335],[-128.291,-24.366],[-128.29,-24.398],[-128.3,-24.414],[-128.321,-24.401],[-128.342,-24.372],[-128.35,-24.341],[-128.33,-24.324]]],[[[-130.745,-23.924],[-130.741,-23.924],[-130.742,-23.928],[-130.747,-23.933],[-130.751,-23.935],[-130.753,-23.93],[-130.751,-23.927],[-130.748,-23.927],[-130.745,-23.924]]]]}},{"type":"Feature","properties":{"name":"Georgia de Sud","parentIso":"GBR","iso":"SGS"},"geometry":{"type":"MultiPolygon","coordinates":[[[[-27.253,-59.458],[-27.25,-59.447],[-27.243,-59.441],[-27.231,-59.438],[-27.137,-59.437],[-27.137,-59.444],[-27.146,-59.453],[-27.148,-59.463],[-27.153,-59.471],[-27.214,-59.472],[-27.235,-59.468],[-27.253,-59.458]]],[[[-27.329,-59.437],[-27.323,-59.447],[-27.321,-59.458],[-27.316,-59.467],[-27.301,-59.472],[-27.312,-59.473],[-27.323,-59.472],[-27.333,-59.469],[-27.342,-59.465],[-27.371,-59.456],[-27.399,-59.444],[-27.407,-59.432],[-27.377,-59.424],[-27.331,-59.425],[-27.33,-59.428],[-27.331,-59.432],[-27.329,-59.437]]],[[[-26.63,-59.006],[-26.595,-59.002],[-26.563,-59.008],[-26.499,-59.033],[-26.522,-59.047],[-26.545,-59.057],[-26.569,-59.064],[-26.596,-59.067],[-26.63,-59.063],[-26.654,-59.046],[-26.657,-59.024],[-26.63,-59.006]]],[[[-26.26,-58.437],[-26.255,-58.445],[-26.242,-58.461],[-26.239,-58.468],[-26.246,-58.489],[-26.246,-58.499],[-26.249,-58.495],[-26.253,-58.494],[-26.256,-58.493],[-26.301,-58.477],[-26.43,-58.452],[-26.458,-58.427],[-26.455,-58.421],[-26.448,-58.414],[-26.441,-58.404],[-26.438,-58.392],[-26.431,-58.385],[-26.415,-58.382],[-26.312,-58.382],[-26.277,-58.387],[-26.246,-58.403],[-26.26,-58.437]]],[[[-26.424,-57.813],[-26.452,-57.812],[-26.479,-57.803],[-26.5,-57.789],[-26.513,-57.773],[-26.478,-57.745],[-26.459,-57.738],[-26.438,-57.745],[-26.433,-57.751],[-26.425,-57.771],[-26.417,-57.779],[-26.403,-57.784],[-26.388,-57.786],[-26.356,-57.786],[-26.372,-57.797],[-26.389,-57.803],[-26.424,-57.813]]],[[[-26.733,-57.059],[-26.713,-57.048],[-26.69,-57.051],[-26.668,-57.062],[-26.65,-57.08],[-26.655,-57.08],[-26.658,-57.082],[-26.66,-57.084],[-26.664,-57.087],[-26.671,-57.08],[-26.683,-57.081],[-26.7,-57.076],[-26.733,-57.059]]],[[[-27.151,-56.676],[-27.135,-56.679],[-27.112,-56.686],[-27.094,-56.696],[-27.092,-56.706],[-27.107,-56.715],[-27.164,-56.724],[-27.196,-56.719],[-27.208,-56.713],[-27.212,-56.7],[-27.205,-56.69],[-27.187,-56.683],[-27.167,-56.678],[-27.151,-56.676]]],[[[-27.61,-56.292],[-27.593,-56.277],[-27.572,-56.273],[-27.55,-56.276],[-27.528,-56.285],[-27.528,-56.292],[-27.543,-56.297],[-27.556,-56.311],[-27.569,-56.321],[-27.583,-56.313],[-27.602,-56.297],[-27.61,-56.292]]],[[[-37.083,-54.466],[-37.068,-54.464],[-37.049,-54.475],[-37.018,-54.497],[-37.018,-54.503],[-37.026,-54.503],[-37.03,-54.505],[-37.034,-54.508],[-37.039,-54.511],[-37.063,-54.514],[-37.075,-54.513],[-37.086,-54.511],[-37.086,-54.503],[-37.067,-54.503],[-37.108,-54.49],[-37.11,-54.477],[-37.103,-54.472],[-37.092,-54.469],[-37.083,-54.466]]],[[[-38.087,-54.004],[-38.078,-53.992],[-38.062,-53.988],[-38.026,-53.989],[-38.066,-54.002],[-38.076,-54.004],[-38.087,-54.004]]],[[[-35.909,-54.687],[-35.936,-54.689],[-35.915,-54.715],[-35.871,-54.737],[-35.822,-54.752],[-35.784,-54.757],[-35.784,-54.765],[-35.797,-54.767],[-35.811,-54.772],[-35.822,-54.779],[-35.827,-54.788],[-35.835,-54.791],[-35.855,-54.79],[-35.887,-54.784],[-35.907,-54.805],[-35.937,-54.81],[-35.97,-54.806],[-35.997,-54.798],[-36.047,-54.776],[-36.076,-54.767],[-36.106,-54.765],[-36.097,-54.775],[-36.084,-54.783],[-36.07,-54.789],[-36.056,-54.791],[-36.043,-54.794],[-36.023,-54.811],[-36.011,-54.819],[-36,-54.822],[-35.989,-54.824],[-35.963,-54.825],[-35.953,-54.828],[-35.934,-54.842],[-35.922,-54.846],[-35.922,-54.852],[-35.933,-54.853],[-35.944,-54.853],[-35.954,-54.851],[-35.963,-54.846],[-35.961,-54.851],[-35.958,-54.862],[-35.956,-54.866],[-35.985,-54.867],[-35.996,-54.863],[-36.004,-54.852],[-36.008,-54.865],[-36.007,-54.871],[-36.004,-54.879],[-36.017,-54.88],[-36.038,-54.875],[-36.049,-54.873],[-36.055,-54.876],[-36.063,-54.882],[-36.073,-54.887],[-36.102,-54.887],[-36.116,-54.885],[-36.127,-54.878],[-36.134,-54.866],[-36.125,-54.866],[-36.119,-54.864],[-36.106,-54.859],[-36.147,-54.846],[-36.192,-54.811],[-36.212,-54.806],[-36.235,-54.795],[-36.272,-54.771],[-36.273,-54.757],[-36.283,-54.758],[-36.299,-54.744],[-36.295,-54.728],[-36.304,-54.711],[-36.312,-54.69],[-36.346,-54.654],[-36.422,-54.593],[-36.436,-54.586],[-36.448,-54.585],[-36.464,-54.582],[-36.478,-54.576],[-36.484,-54.569],[-36.48,-54.558],[-36.466,-54.545],[-36.463,-54.538],[-36.474,-54.524],[-36.499,-54.511],[-36.525,-54.501],[-36.542,-54.497],[-36.57,-54.497],[-36.581,-54.5],[-36.601,-54.514],[-36.615,-54.516],[-36.629,-54.515],[-36.641,-54.511],[-36.659,-54.499],[-36.67,-54.487],[-36.684,-54.477],[-36.786,-54.449],[-36.793,-54.448],[-36.802,-54.449],[-36.81,-54.449],[-36.813,-54.445],[-36.812,-54.441],[-36.807,-54.429],[-36.806,-54.428],[-36.806,-54.423],[-36.8,-54.415],[-36.799,-54.411],[-36.8,-54.403],[-36.803,-54.403],[-36.808,-54.404],[-36.813,-54.401],[-36.828,-54.39],[-36.847,-54.384],[-36.868,-54.381],[-36.888,-54.38],[-36.881,-54.373],[-36.901,-54.367],[-36.896,-54.357],[-36.886,-54.352],[-36.874,-54.351],[-36.861,-54.353],[-36.885,-54.336],[-36.924,-54.336],[-37.001,-54.346],[-37.014,-54.343],[-37.053,-54.331],[-37.073,-54.322],[-37.082,-54.316],[-37.086,-54.312],[-37.086,-54.305],[-37.081,-54.296],[-37.08,-54.287],[-37.09,-54.284],[-37.103,-54.281],[-37.119,-54.275],[-37.134,-54.268],[-37.145,-54.26],[-37.153,-54.258],[-37.172,-54.262],[-37.183,-54.26],[-37.2,-54.253],[-37.224,-54.249],[-37.242,-54.25],[-37.27,-54.261],[-37.331,-54.265],[-37.35,-54.269],[-37.368,-54.277],[-37.374,-54.27],[-37.383,-54.267],[-37.392,-54.266],[-37.402,-54.27],[-37.414,-54.255],[-37.41,-54.248],[-37.335,-54.23],[-37.319,-54.229],[-37.338,-54.214],[-37.394,-54.201],[-37.409,-54.182],[-37.368,-54.182],[-37.321,-54.174],[-37.237,-54.148],[-37.262,-54.141],[-37.353,-54.141],[-37.388,-54.148],[-37.401,-54.145],[-37.424,-54.136],[-37.436,-54.133],[-37.529,-54.133],[-37.553,-54.138],[-37.562,-54.147],[-37.555,-54.156],[-37.533,-54.161],[-37.551,-54.166],[-37.63,-54.175],[-37.669,-54.173],[-37.69,-54.174],[-37.685,-54.17],[-37.68,-54.164],[-37.676,-54.161],[-37.689,-54.156],[-37.725,-54.133],[-37.688,-54.12],[-37.67,-54.111],[-37.656,-54.099],[-37.672,-54.096],[-37.706,-54.098],[-37.725,-54.092],[-37.661,-54.073],[-37.632,-54.059],[-37.615,-54.038],[-37.734,-54.038],[-37.793,-54.044],[-37.808,-54.041],[-37.829,-54.032],[-37.841,-54.03],[-37.897,-54.043],[-37.928,-54.046],[-37.954,-54.034],[-37.973,-54.028],[-38.012,-54.052],[-38.032,-54.051],[-38.03,-54.042],[-38.025,-54.033],[-38.017,-54.026],[-38.005,-54.024],[-38.01,-54.016],[-38.015,-54.011],[-38.021,-54.009],[-38.032,-54.01],[-38.016,-54.004],[-37.964,-54.004],[-37.912,-53.991],[-37.892,-53.989],[-37.87,-53.993],[-37.837,-54.007],[-37.82,-54.01],[-37.799,-54.008],[-37.777,-54.002],[-37.756,-53.994],[-37.738,-53.983],[-37.738,-53.973],[-37.717,-53.972],[-37.689,-53.977],[-37.67,-53.983],[-37.679,-53.985],[-37.684,-53.988],[-37.687,-53.994],[-37.69,-54.004],[-37.492,-54],[-37.422,-53.986],[-37.382,-53.983],[-37.382,-53.989],[-37.443,-54.01],[-37.437,-54.017],[-37.443,-54.03],[-37.464,-54.03],[-37.443,-54.043],[-37.426,-54.049],[-37.409,-54.051],[-37.385,-54.051],[-37.376,-54.05],[-37.359,-54.045],[-37.351,-54.044],[-37.293,-54.044],[-37.233,-54.068],[-37.224,-54.069],[-37.217,-54.052],[-37.202,-54.049],[-37.185,-54.049],[-37.17,-54.044],[-37.171,-54.034],[-37.156,-54.031],[-37.135,-54.032],[-37.121,-54.03],[-37.14,-54.046],[-37.133,-54.05],[-37.118,-54.05],[-37.108,-54.051],[-37.108,-54.062],[-37.118,-54.07],[-37.142,-54.079],[-37.138,-54.088],[-37.139,-54.097],[-37.143,-54.105],[-37.149,-54.114],[-37.122,-54.112],[-37.102,-54.099],[-37.083,-54.081],[-37.06,-54.065],[-37.037,-54.058],[-37.005,-54.052],[-36.978,-54.055],[-36.97,-54.072],[-37.013,-54.096],[-37.031,-54.111],[-37.018,-54.12],[-36.996,-54.117],[-36.916,-54.086],[-36.921,-54.082],[-36.931,-54.075],[-36.936,-54.072],[-36.915,-54.068],[-36.891,-54.07],[-36.84,-54.079],[-36.813,-54.088],[-36.806,-54.092],[-36.804,-54.103],[-36.816,-54.116],[-36.813,-54.127],[-36.818,-54.135],[-36.813,-54.141],[-36.803,-54.143],[-36.792,-54.14],[-36.788,-54.133],[-36.784,-54.108],[-36.779,-54.099],[-36.754,-54.094],[-36.655,-54.106],[-36.663,-54.114],[-36.643,-54.114],[-36.632,-54.116],[-36.622,-54.12],[-36.622,-54.127],[-36.63,-54.135],[-36.632,-54.139],[-36.635,-54.148],[-36.652,-54.141],[-36.67,-54.14],[-36.688,-54.144],[-36.703,-54.154],[-36.675,-54.158],[-36.664,-54.162],[-36.669,-54.168],[-36.68,-54.171],[-36.705,-54.171],[-36.717,-54.174],[-36.692,-54.184],[-36.659,-54.182],[-36.6,-54.168],[-36.542,-54.161],[-36.533,-54.167],[-36.524,-54.177],[-36.513,-54.183],[-36.497,-54.174],[-36.493,-54.181],[-36.491,-54.185],[-36.493,-54.189],[-36.497,-54.195],[-36.513,-54.188],[-36.529,-54.188],[-36.559,-54.195],[-36.573,-54.202],[-36.657,-54.239],[-36.664,-54.241],[-36.67,-54.244],[-36.676,-54.249],[-36.674,-54.254],[-36.669,-54.26],[-36.667,-54.268],[-36.676,-54.277],[-36.65,-54.279],[-36.631,-54.278],[-36.613,-54.273],[-36.545,-54.238],[-36.519,-54.232],[-36.504,-54.243],[-36.492,-54.235],[-36.477,-54.239],[-36.469,-54.251],[-36.474,-54.267],[-36.482,-54.27],[-36.492,-54.27],[-36.501,-54.272],[-36.504,-54.281],[-36.501,-54.286],[-36.495,-54.289],[-36.492,-54.294],[-36.497,-54.305],[-36.488,-54.314],[-36.486,-54.325],[-36.49,-54.336],[-36.497,-54.346],[-36.458,-54.318],[-36.437,-54.31],[-36.419,-54.315],[-36.393,-54.343],[-36.375,-54.356],[-36.354,-54.359],[-36.337,-54.351],[-36.338,-54.338],[-36.348,-54.321],[-36.354,-54.301],[-36.357,-54.294],[-36.381,-54.277],[-36.388,-54.269],[-36.392,-54.263],[-36.394,-54.255],[-36.394,-54.243],[-36.329,-54.257],[-36.299,-54.268],[-36.292,-54.284],[-36.28,-54.282],[-36.269,-54.282],[-36.261,-54.285],[-36.257,-54.294],[-36.255,-54.305],[-36.253,-54.313],[-36.255,-54.319],[-36.265,-54.325],[-36.235,-54.339],[-36.235,-54.344],[-36.249,-54.35],[-36.257,-54.37],[-36.244,-54.375],[-36.162,-54.373],[-36.164,-54.386],[-36.165,-54.399],[-36.171,-54.41],[-36.189,-54.415],[-36.184,-54.424],[-36.176,-54.43],[-36.166,-54.434],[-36.155,-54.435],[-36.155,-54.444],[-36.146,-54.45],[-36.133,-54.453],[-36.121,-54.456],[-36.115,-54.455],[-36.1,-54.449],[-36.093,-54.452],[-36.076,-54.462],[-36.052,-54.461],[-36.042,-54.464],[-36.038,-54.473],[-36.035,-54.484],[-36.027,-54.491],[-36.016,-54.495],[-36.034,-54.504],[-36.056,-54.515],[-36.1,-54.545],[-36.088,-54.552],[-36.07,-54.567],[-36.059,-54.572],[-36.043,-54.573],[-35.951,-54.571],[-35.936,-54.566],[-35.91,-54.552],[-35.898,-54.549],[-35.887,-54.551],[-35.891,-54.562],[-35.908,-54.593],[-35.932,-54.618],[-35.936,-54.62],[-35.912,-54.665],[-35.909,-54.687]]],[[[-28.213,-56.714],[-28.193,-56.704],[-28.171,-56.705],[-28.169,-56.716],[-28.187,-56.726],[-28.21,-56.725],[-28.213,-56.714]]]]}},{"type":"Feature","properties":{"name":"Diego Garcia (BIOT)","parentIso":"GBR","iso":"IOT"},"geometry":{"type":"MultiPolygon","coordinates":[[[[72.468,-7.384],[72.472,-7.379],[72.475,-7.377],[72.478,-7.373],[72.48,-7.365],[72.483,-7.37],[72.485,-7.376],[72.484,-7.383],[72.481,-7.391],[72.473,-7.4],[72.444,-7.425],[72.433,-7.432],[72.427,-7.404],[72.433,-7.347],[72.426,-7.323],[72.419,-7.317],[72.397,-7.305],[72.388,-7.303],[72.379,-7.297],[72.358,-7.268],[72.371,-7.27],[72.42,-7.304],[72.433,-7.316],[72.439,-7.34],[72.433,-7.425],[72.443,-7.416],[72.468,-7.384]]],[[[72.484,-7.278],[72.495,-7.296],[72.49,-7.31],[72.479,-7.323],[72.474,-7.34],[72.474,-7.347],[72.475,-7.353],[72.479,-7.362],[72.475,-7.357],[72.47,-7.349],[72.468,-7.341],[72.471,-7.333],[72.487,-7.302],[72.477,-7.278],[72.457,-7.255],[72.44,-7.227],[72.45,-7.234],[72.484,-7.278]]],[[[71.35,-6.653],[71.362,-6.653],[71.355,-6.656],[71.352,-6.656],[71.35,-6.653],[71.35,-6.653]]],[[[71.261,-6.389],[71.261,-6.378],[71.262,-6.374],[71.267,-6.37],[71.269,-6.378],[71.268,-6.383],[71.265,-6.386],[71.261,-6.389]]],[[[71.338,-6.196],[71.342,-6.188],[71.347,-6.182],[71.353,-6.178],[71.361,-6.177],[71.357,-6.189],[71.351,-6.2],[71.345,-6.205],[71.338,-6.196]]],[[[71.773,-5.44],[71.765,-5.434],[71.762,-5.432],[71.772,-5.433],[71.775,-5.436],[71.774,-5.438],[71.773,-5.44]]],[[[72.221,-5.328],[72.231,-5.319],[72.228,-5.325],[72.225,-5.327],[72.223,-5.328],[72.221,-5.328]]],[[[71.737,-5.285],[71.747,-5.27],[71.745,-5.279],[71.742,-5.283],[71.739,-5.285],[71.737,-5.285]]],[[[71.76,-5.237],[71.769,-5.234],[71.766,-5.239],[71.764,-5.24],[71.763,-5.238],[71.76,-5.237]]],[[[71.966,-5.235],[71.965,-5.232],[71.963,-5.231],[71.962,-5.23],[71.963,-5.227],[71.966,-5.227],[71.967,-5.229],[71.966,-5.232],[71.966,-5.235]]]]}},{"type":"Feature","properties":{"name":"Insulele Canare","parentIso":"ESP","iso":"Spain:las palmas|santa cruz de tenerife"},"geometry":{"type":"MultiPolygon","coordinates":[[[[-17.934,27.852],[-17.914,27.85],[-17.896,27.84],[-17.884,27.828],[-17.879,27.815],[-17.885,27.798],[-17.926,27.743],[-17.928,27.737],[-17.927,27.73],[-17.927,27.724],[-17.93,27.719],[-17.935,27.716],[-17.941,27.714],[-17.945,27.711],[-17.947,27.705],[-17.95,27.7],[-17.958,27.694],[-17.965,27.687],[-17.969,27.678],[-17.971,27.654],[-17.979,27.643],[-17.994,27.642],[-18.016,27.653],[-18.031,27.668],[-18.04,27.681],[-18.053,27.691],[-18.127,27.7],[-18.147,27.709],[-18.16,27.722],[-18.167,27.758],[-18.14,27.769],[-18.098,27.765],[-18.057,27.756],[-18.042,27.765],[-18.003,27.799],[-17.995,27.808],[-17.994,27.819],[-17.99,27.824],[-17.969,27.832],[-17.934,27.852]]],[[[-17.31,28.207],[-17.259,28.218],[-17.213,28.205],[-17.17,28.181],[-17.116,28.146],[-17.104,28.123],[-17.098,28.101],[-17.114,28.081],[-17.134,28.07],[-17.163,28.045],[-17.185,28.032],[-17.207,28.027],[-17.233,28.019],[-17.258,28.025],[-17.31,28.053],[-17.343,28.098],[-17.343,28.133],[-17.339,28.171],[-17.31,28.207]]],[[[-16.428,28.15],[-16.441,28.133],[-16.457,28.115],[-16.522,28.058],[-16.536,28.036],[-16.546,28.024],[-16.58,28.03],[-16.634,28.012],[-16.657,28.004],[-16.676,27.997],[-16.693,28],[-16.704,28.014],[-16.706,28.023],[-16.704,28.035],[-16.713,28.038],[-16.721,28.045],[-16.724,28.053],[-16.726,28.071],[-16.728,28.079],[-16.742,28.094],[-16.781,28.128],[-16.789,28.144],[-16.795,28.165],[-16.811,28.182],[-16.827,28.196],[-16.837,28.209],[-16.844,28.253],[-16.847,28.263],[-16.861,28.282],[-16.873,28.305],[-16.907,28.335],[-16.916,28.355],[-16.892,28.369],[-16.837,28.391],[-16.818,28.384],[-16.794,28.369],[-16.783,28.366],[-16.77,28.366],[-16.742,28.373],[-16.72,28.383],[-16.687,28.393],[-16.664,28.401],[-16.644,28.396],[-16.604,28.4],[-16.585,28.401],[-16.564,28.415],[-16.539,28.418],[-16.528,28.422],[-16.507,28.424],[-16.487,28.438],[-16.44,28.475],[-16.42,28.491],[-16.414,28.499],[-16.412,28.514],[-16.408,28.52],[-16.389,28.529],[-16.381,28.534],[-16.363,28.543],[-16.341,28.547],[-16.323,28.553],[-16.316,28.572],[-16.3,28.567],[-16.203,28.564],[-16.141,28.583],[-16.118,28.572],[-16.127,28.544],[-16.157,28.524],[-16.231,28.488],[-16.248,28.461],[-16.269,28.443],[-16.296,28.418],[-16.324,28.397],[-16.342,28.391],[-16.356,28.381],[-16.366,28.362],[-16.366,28.341],[-16.361,28.325],[-16.358,28.315],[-16.361,28.304],[-16.371,28.297],[-16.38,28.288],[-16.387,28.265],[-16.419,28.211],[-16.428,28.168],[-16.428,28.15]]],[[[-17.756,28.819],[-17.758,28.799],[-17.751,28.775],[-17.741,28.758],[-17.722,28.749],[-17.721,28.731],[-17.751,28.7],[-17.765,28.678],[-17.758,28.658],[-17.746,28.622],[-17.754,28.603],[-17.76,28.577],[-17.783,28.549],[-17.803,28.509],[-17.822,28.476],[-17.831,28.455],[-17.837,28.455],[-17.843,28.465],[-17.865,28.475],[-17.872,28.494],[-17.88,28.544],[-17.891,28.556],[-17.899,28.572],[-17.919,28.596],[-17.925,28.618],[-17.963,28.671],[-17.967,28.697],[-17.971,28.713],[-17.976,28.728],[-17.992,28.739],[-18.002,28.75],[-17.997,28.78],[-17.971,28.813],[-17.936,28.84],[-17.911,28.856],[-17.891,28.844],[-17.866,28.841],[-17.842,28.835],[-17.801,28.849],[-17.781,28.842],[-17.765,28.829],[-17.756,28.819]]]]}},{"type":"Feature","properties":{"name":"Insulele Canare","parentIso":"ESP","iso":"Spain:las palmas|santa cruz de tenerife"},"geometry":{"type":"MultiPolygon","coordinates":[[[[-15.392,28.03],[-15.383,28.024],[-15.368,28.016],[-15.364,28.01],[-15.366,27.993],[-15.374,27.975],[-15.377,27.958],[-15.364,27.941],[-15.364,27.935],[-15.375,27.93],[-15.382,27.921],[-15.392,27.9],[-15.383,27.885],[-15.376,27.868],[-15.378,27.852],[-15.395,27.846],[-15.407,27.838],[-15.439,27.803],[-15.453,27.791],[-15.523,27.772],[-15.535,27.766],[-15.54,27.766],[-15.566,27.739],[-15.578,27.734],[-15.588,27.739],[-15.598,27.746],[-15.607,27.75],[-15.651,27.753],[-15.67,27.757],[-15.686,27.763],[-15.74,27.804],[-15.748,27.815],[-15.752,27.821],[-15.773,27.832],[-15.782,27.838],[-15.786,27.844],[-15.815,27.901],[-15.821,27.922],[-15.816,27.941],[-15.82,27.953],[-15.822,27.968],[-15.821,27.984],[-15.816,27.996],[-15.807,28.005],[-15.768,28.024],[-15.75,28.036],[-15.725,28.057],[-15.708,28.082],[-15.714,28.106],[-15.702,28.115],[-15.698,28.133],[-15.7,28.153],[-15.706,28.167],[-15.695,28.168],[-15.684,28.168],[-15.674,28.165],[-15.665,28.161],[-15.651,28.164],[-15.597,28.148],[-15.521,28.148],[-15.459,28.134],[-15.435,28.141],[-15.439,28.175],[-15.409,28.18],[-15.405,28.178],[-15.4,28.165],[-15.4,28.157],[-15.409,28.154],[-15.416,28.142],[-15.415,28.114],[-15.409,28.075],[-15.406,28.068],[-15.404,28.056],[-15.4,28.043],[-15.392,28.03]]],[[[-13.973,28.736],[-13.935,28.749],[-13.899,28.754],[-13.865,28.744],[-13.836,28.715],[-13.824,28.682],[-13.821,28.637],[-13.829,28.552],[-13.835,28.531],[-13.853,28.493],[-13.857,28.479],[-13.858,28.446],[-13.857,28.435],[-13.854,28.428],[-13.844,28.414],[-13.843,28.407],[-13.848,28.397],[-13.866,28.383],[-13.87,28.377],[-13.87,28.368],[-13.872,28.358],[-13.875,28.349],[-13.892,28.328],[-13.9,28.311],[-13.911,28.277],[-13.934,28.244],[-13.967,28.228],[-14.073,28.213],[-14.119,28.201],[-14.152,28.18],[-14.192,28.171],[-14.212,28.161],[-14.245,28.129],[-14.271,28.096],[-14.301,28.068],[-14.343,28.051],[-14.369,28.051],[-14.408,28.067],[-14.429,28.071],[-14.495,28.068],[-14.507,28.071],[-14.503,28.075],[-14.499,28.087],[-14.496,28.099],[-14.497,28.103],[-14.49,28.104],[-14.456,28.099],[-14.436,28.101],[-14.399,28.111],[-14.341,28.135],[-14.27,28.176],[-14.24,28.202],[-14.224,28.219],[-14.214,28.235],[-14.207,28.254],[-14.202,28.304],[-14.193,28.322],[-14.171,28.352],[-14.146,28.423],[-14.141,28.435],[-14.128,28.444],[-14.098,28.487],[-14.076,28.536],[-14.036,28.587],[-14.025,28.637],[-14.01,28.667],[-14.005,28.704],[-14,28.717],[-13.989,28.727],[-13.973,28.736]]],[[[-13.483,29.24],[-13.465,29.243],[-13.447,29.233],[-13.418,29.209],[-13.428,29.189],[-13.432,29.172],[-13.439,29.159],[-13.459,29.147],[-13.462,29.132],[-13.459,29.119],[-13.454,29.104],[-13.452,29.086],[-13.454,29.079],[-13.462,29.066],[-13.466,29.058],[-13.466,29.05],[-13.465,29.032],[-13.466,29.024],[-13.482,28.999],[-13.51,28.977],[-13.543,28.962],[-13.59,28.951],[-13.6,28.942],[-13.608,28.933],[-13.62,28.928],[-13.635,28.927],[-13.658,28.923],[-13.674,28.922],[-13.709,28.915],[-13.736,28.896],[-13.757,28.87],[-13.775,28.84],[-13.781,28.84],[-13.791,28.853],[-13.812,28.859],[-13.86,28.859],[-13.867,28.865],[-13.874,28.877],[-13.876,28.889],[-13.873,28.894],[-13.862,28.897],[-13.853,28.905],[-13.843,28.922],[-13.839,28.938],[-13.835,28.987],[-13.832,29],[-13.798,29.048],[-13.781,29.065],[-13.767,29.074],[-13.751,29.081],[-13.731,29.085],[-13.709,29.086],[-13.69,29.091],[-13.656,29.116],[-13.637,29.127],[-13.618,29.132],[-13.602,29.134],[-13.551,29.134],[-13.537,29.138],[-13.526,29.15],[-13.514,29.175],[-13.503,29.208],[-13.495,29.225],[-13.483,29.24]]],[[[-13.487,29.285],[-13.478,29.266],[-13.492,29.243],[-13.517,29.226],[-13.541,29.229],[-13.541,29.237],[-13.526,29.251],[-13.518,29.274],[-13.508,29.289],[-13.487,29.285]]]]}},{"type":"Feature","properties":{"name":"Ceuta","parentIso":"ESP","iso":"Spain:ceuta"},"geometry":{"type":"Polygon","coordinates":[[[-5.341,35.847],[-5.363,35.864],[-5.378,35.882],[-5.39,35.902],[-5.399,35.925],[-5.385,35.926],[-5.366,35.925],[-5.344,35.915],[-5.327,35.904],[-5.309,35.901],[-5.283,35.912],[-5.292,35.891],[-5.336,35.862],[-5.341,35.847]]]}},{"type":"Feature","properties":{"name":"Melilla","parentIso":"ESP","iso":"Spain:melilla"},"geometry":{"type":"Polygon","coordinates":[[[-2.943,35.268],[-2.964,35.286],[-2.967,35.314],[-2.948,35.33],[-2.922,35.288],[-2.913,35.277],[-2.913,35.277],[-2.943,35.268]]]}},{"type":"Feature","properties":{"name":"Azore","parentIso":"PRT","iso":"Portugal:açores|azores"},"geometry":{"type":"MultiPolygon","coordinates":[[[[-25.067,37.021],[-25.047,37.011],[-25.029,36.992],[-25.017,36.97],[-25.012,36.949],[-25.027,36.934],[-25.061,36.937],[-25.119,36.953],[-25.152,36.946],[-25.169,36.946],[-25.177,36.956],[-25.183,36.969],[-25.195,36.98],[-25.202,36.99],[-25.191,37],[-25.17,37.016],[-25.134,37.023],[-25.094,37.024],[-25.067,37.021]]],[[[-25.198,37.864],[-25.159,37.852],[-25.135,37.822],[-25.132,37.786],[-25.157,37.755],[-25.195,37.741],[-25.328,37.727],[-25.372,37.717],[-25.42,37.714],[-25.465,37.715],[-25.488,37.714],[-25.506,37.707],[-25.533,37.72],[-25.559,37.729],[-25.616,37.741],[-25.704,37.744],[-25.825,37.815],[-25.859,37.854],[-25.841,37.906],[-25.765,37.912],[-25.739,37.906],[-25.704,37.883],[-25.698,37.874],[-25.697,37.863],[-25.694,37.853],[-25.689,37.846],[-25.681,37.843],[-25.554,37.83],[-25.539,37.833],[-25.513,37.847],[-25.499,37.851],[-25.49,37.848],[-25.469,37.835],[-25.458,37.83],[-25.442,37.837],[-25.34,37.862],[-25.198,37.864]]],[[[-28.109,38.447],[-28.064,38.443],[-28.047,38.433],[-28.041,38.409],[-28.054,38.399],[-28.085,38.398],[-28.163,38.407],[-28.185,38.406],[-28.205,38.4],[-28.242,38.378],[-28.254,38.383],[-28.263,38.395],[-28.275,38.406],[-28.297,38.411],[-28.439,38.414],[-28.46,38.406],[-28.525,38.454],[-28.549,38.484],[-28.549,38.529],[-28.519,38.55],[-28.485,38.558],[-28.415,38.556],[-28.375,38.55],[-28.275,38.502],[-28.239,38.49],[-28.237,38.488],[-28.226,38.484],[-28.206,38.471],[-28.196,38.468],[-28.174,38.465],[-28.109,38.447]]],[[[-28.61,38.597],[-28.596,38.553],[-28.603,38.552],[-28.635,38.541],[-28.644,38.535],[-28.638,38.529],[-28.635,38.526],[-28.632,38.524],[-28.623,38.522],[-28.636,38.516],[-28.648,38.516],[-28.672,38.522],[-28.684,38.521],[-28.714,38.515],[-28.727,38.515],[-28.75,38.524],[-28.775,38.554],[-28.795,38.57],[-28.841,38.591],[-28.842,38.599],[-28.809,38.604],[-28.78,38.605],[-28.766,38.607],[-28.754,38.612],[-28.745,38.619],[-28.729,38.639],[-28.72,38.645],[-28.633,38.614],[-28.61,38.597]]],[[[-27.891,38.604],[-27.817,38.583],[-27.779,38.567],[-27.761,38.549],[-27.777,38.544],[-27.796,38.542],[-27.836,38.543],[-27.852,38.547],[-27.885,38.561],[-27.915,38.565],[-27.932,38.57],[-27.949,38.578],[-27.962,38.587],[-27.977,38.593],[-28.004,38.589],[-28.021,38.597],[-28.035,38.59],[-28.044,38.594],[-28.062,38.612],[-28.074,38.618],[-28.178,38.645],[-28.196,38.656],[-28.216,38.682],[-28.223,38.686],[-28.231,38.685],[-28.235,38.683],[-28.239,38.683],[-28.247,38.686],[-28.25,38.69],[-28.249,38.694],[-28.249,38.698],[-28.257,38.7],[-28.265,38.703],[-28.312,38.735],[-28.316,38.742],[-28.316,38.755],[-28.297,38.749],[-28.264,38.732],[-28.25,38.728],[-28.233,38.726],[-28.034,38.666],[-27.891,38.604]]],[[[-27.02,38.694],[-27.026,38.69],[-27.048,38.683],[-27.054,38.679],[-27.056,38.671],[-27.052,38.654],[-27.054,38.645],[-27.06,38.641],[-27.089,38.631],[-27.114,38.639],[-27.182,38.639],[-27.204,38.653],[-27.217,38.641],[-27.228,38.641],[-27.253,38.653],[-27.279,38.657],[-27.305,38.659],[-27.328,38.666],[-27.353,38.684],[-27.373,38.707],[-27.383,38.728],[-27.392,38.759],[-27.369,38.783],[-27.332,38.798],[-27.298,38.804],[-27.144,38.796],[-27.116,38.786],[-27.075,38.767],[-27.043,38.744],[-27.038,38.724],[-27.041,38.714],[-27.033,38.709],[-27.023,38.703],[-27.02,38.694]]],[[[-27.983,39.015],[-28.004,39.016],[-28.025,39.019],[-28.045,39.026],[-28.062,39.036],[-28.073,39.053],[-28.072,39.068],[-28.055,39.098],[-28.045,39.103],[-28.034,39.105],[-28.024,39.103],[-28.014,39.098],[-28.007,39.105],[-27.991,39.088],[-27.958,39.066],[-27.942,39.053],[-27.936,39.036],[-27.947,39.024],[-27.966,39.017],[-27.983,39.015]]],[[[-31.208,39.509],[-31.199,39.502],[-31.186,39.497],[-31.173,39.495],[-31.16,39.502],[-31.141,39.483],[-31.133,39.466],[-31.132,39.423],[-31.139,39.4],[-31.157,39.373],[-31.177,39.356],[-31.194,39.365],[-31.213,39.358],[-31.234,39.356],[-31.255,39.358],[-31.269,39.365],[-31.278,39.378],[-31.285,39.398],[-31.285,39.416],[-31.276,39.426],[-31.281,39.443],[-31.276,39.457],[-31.267,39.472],[-31.263,39.492],[-31.256,39.507],[-31.239,39.518],[-31.219,39.522],[-31.201,39.522],[-31.208,39.509]]],[[[-31.117,39.728],[-31.083,39.723],[-31.08,39.693],[-31.1,39.664],[-31.132,39.659],[-31.133,39.665],[-31.149,39.696],[-31.153,39.701],[-31.15,39.711],[-31.141,39.721],[-31.129,39.727],[-31.117,39.728]]]]}},{"type":"Feature","properties":{"name":"Madeira","parentIso":"PRT","iso":"Portugal:madeira"},"geometry":{"type":"MultiPolygon","coordinates":[[[[-16.487,32.492],[-16.522,32.539],[-16.53,32.549],[-16.537,32.558],[-16.541,32.569],[-16.542,32.581],[-16.525,32.567],[-16.507,32.544],[-16.492,32.517],[-16.487,32.492]]],[[[-16.789,32.687],[-16.806,32.657],[-16.848,32.644],[-16.896,32.642],[-16.977,32.647],[-17.143,32.706],[-17.181,32.726],[-17.214,32.751],[-17.241,32.779],[-17.25,32.797],[-17.252,32.815],[-17.246,32.829],[-17.231,32.834],[-17.225,32.839],[-17.2,32.868],[-17.191,32.873],[-17.185,32.874],[-17.178,32.873],[-17.166,32.868],[-17.156,32.861],[-17.132,32.839],[-17.122,32.834],[-17.116,32.833],[-17.094,32.828],[-17.068,32.814],[-17.041,32.812],[-17.014,32.817],[-16.995,32.828],[-16.98,32.833],[-16.958,32.838],[-16.92,32.841],[-16.903,32.836],[-16.873,32.817],[-16.861,32.813],[-16.809,32.78],[-16.797,32.775],[-16.786,32.772],[-16.747,32.771],[-16.73,32.767],[-16.714,32.759],[-16.704,32.765],[-16.693,32.767],[-16.682,32.765],[-16.673,32.759],[-16.69,32.755],[-16.725,32.741],[-16.738,32.738],[-16.75,32.731],[-16.782,32.696],[-16.789,32.687]]],[[[-16.34,33.057],[-16.353,33.044],[-16.364,33.034],[-16.378,33.032],[-16.398,33.04],[-16.398,33.047],[-16.388,33.047],[-16.38,33.051],[-16.374,33.058],[-16.362,33.09],[-16.341,33.106],[-16.317,33.111],[-16.296,33.101],[-16.289,33.109],[-16.29,33.079],[-16.286,33.068],[-16.275,33.06],[-16.311,33.066],[-16.326,33.066],[-16.34,33.057]]],[[[-16.028,30.034],[-16.023,30.032],[-16.023,30.029],[-16.027,30.03],[-16.028,30.034]]],[[[-15.864,30.153],[-15.855,30.147],[-15.855,30.14],[-15.86,30.133],[-15.863,30.135],[-15.87,30.136],[-15.875,30.138],[-15.874,30.14],[-15.874,30.142],[-15.873,30.144],[-15.864,30.153]]]]}},{"type":"Feature","properties":{"name":"Insulele Feroe","parentIso":"DNK","iso":"FRO"},"geometry":{"type":"MultiPolygon","coordinates":[[[[-6.655,61.396],[-6.678,61.394],[-6.7,61.404],[-6.737,61.431],[-6.827,61.472],[-6.87,61.502],[-6.866,61.527],[-6.892,61.542],[-6.923,61.566],[-6.946,61.591],[-6.949,61.609],[-6.954,61.614],[-6.963,61.629],[-6.942,61.629],[-6.944,61.632],[-6.945,61.633],[-6.949,61.636],[-6.912,61.648],[-6.895,61.649],[-6.88,61.642],[-6.9,61.632],[-6.907,61.629],[-6.898,61.624],[-6.888,61.622],[-6.877,61.622],[-6.866,61.623],[-6.914,61.601],[-6.914,61.595],[-6.826,61.6],[-6.799,61.583],[-6.737,61.579],[-6.716,61.568],[-6.713,61.554],[-6.724,61.546],[-6.741,61.545],[-6.754,61.55],[-6.766,61.558],[-6.783,61.562],[-6.798,61.561],[-6.806,61.554],[-6.786,61.552],[-6.775,61.543],[-6.766,61.534],[-6.757,61.527],[-6.747,61.526],[-6.725,61.528],[-6.716,61.527],[-6.706,61.521],[-6.702,61.515],[-6.705,61.509],[-6.716,61.506],[-6.716,61.499],[-6.674,61.488],[-6.678,61.48],[-6.687,61.478],[-6.698,61.48],[-6.709,61.479],[-6.744,61.47],[-6.761,61.469],[-6.784,61.472],[-6.784,61.465],[-6.772,61.464],[-6.763,61.46],[-6.755,61.454],[-6.75,61.444],[-6.739,61.456],[-6.721,61.459],[-6.681,61.458],[-6.684,61.454],[-6.688,61.444],[-6.666,61.44],[-6.651,61.425],[-6.646,61.408],[-6.655,61.396]]],[[[-6.613,61.821],[-6.626,61.81],[-6.633,61.804],[-6.63,61.801],[-6.628,61.795],[-6.63,61.767],[-6.635,61.763],[-6.642,61.756],[-6.651,61.749],[-6.661,61.746],[-6.668,61.749],[-6.733,61.814],[-6.747,61.821],[-6.838,61.829],[-6.854,61.832],[-6.868,61.839],[-6.873,61.852],[-6.878,61.87],[-6.899,61.894],[-6.907,61.91],[-6.884,61.908],[-6.842,61.899],[-6.822,61.897],[-6.79,61.899],[-6.778,61.897],[-6.768,61.892],[-6.754,61.88],[-6.743,61.876],[-6.667,61.866],[-6.655,61.859],[-6.648,61.845],[-6.619,61.831],[-6.613,61.821]]],[[[-7.384,62.095],[-7.411,62.106],[-7.43,62.128],[-7.432,62.148],[-7.408,62.15],[-7.372,62.133],[-7.36,62.13],[-7.352,62.129],[-7.329,62.13],[-7.321,62.132],[-7.319,62.136],[-7.318,62.141],[-7.315,62.143],[-7.304,62.145],[-7.286,62.155],[-7.216,62.164],[-7.216,62.158],[-7.223,62.158],[-7.223,62.15],[-7.184,62.137],[-7.171,62.136],[-7.16,62.133],[-7.144,62.116],[-7.134,62.109],[-7.109,62.105],[-7.083,62.106],[-7.058,62.103],[-7.038,62.089],[-7.051,62.076],[-7.06,62.063],[-7.072,62.053],[-7.093,62.048],[-7.111,62.049],[-7.127,62.053],[-7.144,62.054],[-7.161,62.048],[-7.153,62.044],[-7.145,62.042],[-7.136,62.04],[-7.126,62.04],[-7.185,62.027],[-7.202,62.02],[-7.194,62.031],[-7.189,62.034],[-7.196,62.048],[-7.207,62.06],[-7.221,62.066],[-7.236,62.061],[-7.228,62.058],[-7.216,62.051],[-7.207,62.043],[-7.208,62.034],[-7.219,62.033],[-7.264,62.048],[-7.326,62.054],[-7.366,62.067],[-7.38,62.068],[-7.38,62.075],[-7.285,62.075],[-7.307,62.083],[-7.333,62.09],[-7.384,62.095]]],[[[-7.223,62.171],[-7.232,62.176],[-7.235,62.18],[-7.236,62.188],[-7.234,62.198],[-7.228,62.201],[-7.222,62.201],[-7.216,62.205],[-7.21,62.218],[-7.209,62.229],[-7.205,62.236],[-7.189,62.239],[-7.208,62.254],[-7.208,62.275],[-7.195,62.315],[-7.19,62.31],[-7.186,62.309],[-7.181,62.309],[-7.175,62.308],[-7.106,62.3],[-7.073,62.29],[-7.058,62.277],[-7.045,62.252],[-6.997,62.207],[-6.997,62.184],[-6.964,62.179],[-6.907,62.155],[-6.856,62.148],[-6.847,62.142],[-6.846,62.133],[-6.853,62.123],[-6.862,62.115],[-6.875,62.109],[-6.889,62.104],[-6.901,62.102],[-6.813,62.104],[-6.798,62.092],[-6.784,62.077],[-6.779,62.066],[-6.788,62.061],[-6.846,62.061],[-6.846,62.054],[-6.811,62.046],[-6.743,62.047],[-6.716,62.034],[-6.726,62.022],[-6.734,62.005],[-6.732,61.991],[-6.699,61.982],[-6.701,61.974],[-6.706,61.961],[-6.702,61.944],[-6.734,61.938],[-6.765,61.954],[-6.794,61.975],[-6.857,61.995],[-6.91,62.038],[-6.946,62.048],[-6.96,62.05],[-6.969,62.057],[-6.974,62.069],[-6.976,62.085],[-6.982,62.094],[-6.998,62.104],[-7.016,62.112],[-7.031,62.117],[-7.109,62.123],[-7.127,62.127],[-7.137,62.137],[-7.136,62.146],[-7.12,62.15],[-7.129,62.162],[-7.142,62.161],[-7.159,62.154],[-7.175,62.15],[-7.186,62.152],[-7.214,62.165],[-7.223,62.171]]],[[[-7.055,62.29],[-7.064,62.296],[-7.075,62.302],[-7.084,62.308],[-7.086,62.315],[-7.077,62.322],[-7.067,62.321],[-7.055,62.316],[-7.045,62.315],[-7.023,62.319],[-6.986,62.332],[-6.941,62.337],[-6.928,62.335],[-6.918,62.331],[-6.909,62.326],[-6.9,62.322],[-6.888,62.321],[-6.883,62.311],[-6.901,62.304],[-6.923,62.298],[-6.935,62.29],[-6.934,62.274],[-6.931,62.26],[-6.923,62.249],[-6.907,62.239],[-6.917,62.27],[-6.913,62.282],[-6.838,62.294],[-6.814,62.293],[-6.798,62.28],[-6.806,62.279],[-6.825,62.273],[-6.747,62.267],[-6.737,62.262],[-6.745,62.252],[-6.763,62.242],[-6.784,62.239],[-6.784,62.232],[-6.772,62.23],[-6.753,62.221],[-6.743,62.218],[-6.735,62.219],[-6.716,62.225],[-6.706,62.226],[-6.651,62.216],[-6.609,62.202],[-6.606,62.196],[-6.619,62.192],[-6.644,62.191],[-6.704,62.195],[-6.722,62.191],[-6.722,62.184],[-6.6,62.153],[-6.564,62.136],[-6.616,62.139],[-6.668,62.15],[-6.668,62.143],[-6.646,62.141],[-6.625,62.133],[-6.592,62.117],[-6.592,62.109],[-6.61,62.11],[-6.631,62.109],[-6.649,62.104],[-6.661,62.095],[-6.657,62.093],[-6.652,62.09],[-6.647,62.089],[-6.647,62.081],[-6.656,62.077],[-6.66,62.073],[-6.659,62.068],[-6.655,62.061],[-6.691,62.073],[-6.701,62.094],[-6.702,62.119],[-6.709,62.143],[-6.727,62.161],[-6.754,62.182],[-6.784,62.195],[-6.812,62.191],[-6.788,62.178],[-6.759,62.166],[-6.733,62.149],[-6.722,62.123],[-6.74,62.101],[-6.781,62.117],[-6.86,62.164],[-6.9,62.163],[-6.911,62.167],[-6.917,62.172],[-6.938,62.182],[-6.946,62.184],[-6.958,62.19],[-7.02,62.24],[-7.055,62.29]]],[[[-6.537,62.191],[-6.571,62.213],[-6.583,62.229],[-6.578,62.246],[-6.571,62.252],[-6.567,62.251],[-6.565,62.248],[-6.561,62.246],[-6.553,62.247],[-6.552,62.251],[-6.551,62.256],[-6.548,62.263],[-6.546,62.272],[-6.549,62.3],[-6.551,62.308],[-6.563,62.328],[-6.572,62.347],[-6.567,62.361],[-6.537,62.37],[-6.545,62.362],[-6.517,62.323],[-6.483,62.295],[-6.44,62.275],[-6.387,62.26],[-6.405,62.245],[-6.437,62.242],[-6.469,62.249],[-6.49,62.26],[-6.496,62.253],[-6.459,62.228],[-6.44,62.22],[-6.421,62.226],[-6.418,62.208],[-6.414,62.203],[-6.407,62.198],[-6.407,62.191],[-6.424,62.185],[-6.444,62.183],[-6.464,62.186],[-6.479,62.194],[-6.506,62.222],[-6.522,62.23],[-6.537,62.226],[-6.516,62.192],[-6.507,62.181],[-6.503,62.174],[-6.51,62.174],[-6.519,62.176],[-6.529,62.181],[-6.532,62.184],[-6.534,62.188],[-6.537,62.191]]],[[[-7.56,62.108],[-7.546,62.102],[-7.537,62.099],[-7.546,62.097],[-7.559,62.096],[-7.641,62.1],[-7.644,62.107],[-7.617,62.114],[-7.588,62.115],[-7.56,62.108]]],[[[-6.321,62.308],[-6.291,62.308],[-6.276,62.303],[-6.277,62.296],[-6.306,62.282],[-6.3,62.272],[-6.299,62.262],[-6.304,62.256],[-6.313,62.251],[-6.326,62.247],[-6.342,62.244],[-6.359,62.246],[-6.37,62.256],[-6.381,62.269],[-6.384,62.28],[-6.372,62.288],[-6.356,62.292],[-6.321,62.308]]],[[[-6.585,62.29],[-6.581,62.282],[-6.58,62.267],[-6.594,62.261],[-6.616,62.266],[-6.636,62.28],[-6.646,62.29],[-6.673,62.321],[-6.684,62.344],[-6.681,62.366],[-6.664,62.374],[-6.648,62.367],[-6.639,62.352],[-6.596,62.305],[-6.585,62.29]]],[[[-6.655,62.264],[-6.648,62.26],[-6.639,62.249],[-6.643,62.239],[-6.659,62.236],[-6.677,62.241],[-6.691,62.252],[-6.699,62.268],[-6.709,62.283],[-6.716,62.29],[-6.736,62.304],[-6.762,62.328],[-6.769,62.336],[-6.787,62.361],[-6.789,62.375],[-6.779,62.38],[-6.765,62.374],[-6.752,62.362],[-6.724,62.329],[-6.655,62.264]]],[[[-6.409,62.324],[-6.402,62.32],[-6.395,62.31],[-6.399,62.301],[-6.406,62.294],[-6.424,62.29],[-6.456,62.296],[-6.485,62.31],[-6.509,62.33],[-6.524,62.347],[-6.533,62.372],[-6.546,62.378],[-6.556,62.391],[-6.543,62.399],[-6.519,62.395],[-6.505,62.388],[-6.495,62.375],[-6.487,62.36],[-6.475,62.349],[-6.46,62.34],[-6.455,62.331],[-6.455,62.324],[-6.449,62.318],[-6.438,62.319],[-6.427,62.326],[-6.416,62.326],[-6.409,62.324]]]]}},{"type":"Feature","properties":{"name":"Aruba","parentIso":"NLD","iso":"ABW"},"geometry":{"type":"Polygon","coordinates":[[[-69.997,12.578],[-69.936,12.532],[-69.925,12.519],[-69.916,12.497],[-69.88,12.454],[-69.877,12.427],[-69.888,12.418],[-69.909,12.418],[-69.931,12.426],[-69.945,12.44],[-69.925,12.44],[-69.925,12.447],[-69.959,12.463],[-70.028,12.523],[-70.048,12.531],[-70.058,12.537],[-70.062,12.547],[-70.06,12.557],[-70.051,12.574],[-70.049,12.584],[-70.053,12.6],[-70.06,12.614],[-70.061,12.625],[-70.049,12.632],[-70.007,12.586],[-69.997,12.578]]]}},{"type":"Feature","properties":{"name":"Curaçao","parentIso":"NLD","iso":"CUW"},"geometry":{"type":"Polygon","coordinates":[[[-68.781,12.098],[-68.745,12.062],[-68.74,12.053],[-68.749,12.047],[-68.77,12.043],[-68.795,12.041],[-68.815,12.043],[-68.841,12.055],[-68.893,12.091],[-68.945,12.106],[-68.978,12.125],[-69.007,12.148],[-69.02,12.17],[-69.027,12.19],[-69.044,12.197],[-69.063,12.198],[-69.079,12.204],[-69.092,12.22],[-69.123,12.269],[-69.134,12.277],[-69.148,12.284],[-69.16,12.293],[-69.164,12.307],[-69.162,12.343],[-69.164,12.362],[-69.172,12.379],[-69.166,12.388],[-69.161,12.392],[-69.156,12.391],[-69.151,12.386],[-69.108,12.368],[-69.09,12.357],[-69.072,12.341],[-69.06,12.323],[-69.05,12.276],[-69.041,12.256],[-69.004,12.222],[-68.961,12.201],[-68.835,12.171],[-68.821,12.162],[-68.815,12.15],[-68.812,12.129],[-68.804,12.117],[-68.781,12.098]]]}},{"type":"Feature","properties":{"name":"Sint Maarten","parentIso":"NLD","iso":"SXM"},"geometry":{"type":"Polygon","coordinates":[[[-63.107,18.062],[-63.086,18.059],[-63.018,18.033],[-63.031,18.019],[-63.098,18.036],[-63.112,18.043],[-63.119,18.052],[-63.107,18.059],[-63.107,18.062]]]}},{"type":"Feature","properties":{"name":"Guam","parentIso":"USA","iso":"GUM"},"geometry":{"type":"Polygon","coordinates":[[[144.886,13.64],[144.897,13.618],[144.914,13.605],[144.934,13.6],[144.952,13.599],[144.952,13.587],[144.938,13.561],[144.907,13.517],[144.872,13.485],[144.808,13.446],[144.783,13.42],[144.769,13.379],[144.76,13.286],[144.736,13.249],[144.718,13.242],[144.698,13.241],[144.681,13.247],[144.67,13.265],[144.657,13.282],[144.654,13.287],[144.647,13.325],[144.644,13.332],[144.639,13.337],[144.634,13.342],[144.626,13.345],[144.637,13.355],[144.643,13.366],[144.646,13.378],[144.647,13.396],[144.646,13.404],[144.64,13.415],[144.635,13.424],[144.624,13.431],[144.629,13.439],[144.636,13.443],[144.641,13.438],[144.654,13.439],[144.715,13.473],[144.729,13.486],[144.783,13.517],[144.794,13.527],[144.803,13.539],[144.811,13.554],[144.832,13.621],[144.839,13.633],[144.85,13.644],[144.867,13.653],[144.881,13.654],[144.886,13.64]]]}},{"type":"Feature","properties":{"name":"Insulele Virgine Americane","parentIso":"USA","iso":"VIR"},"geometry":{"type":"MultiPolygon","coordinates":[[[[-64.559,17.752],[-64.585,17.749],[-64.607,17.742],[-64.649,17.724],[-64.671,17.717],[-64.876,17.689],[-64.895,17.683],[-64.888,17.7],[-64.887,17.714],[-64.888,17.755],[-64.885,17.768],[-64.876,17.776],[-64.839,17.765],[-64.817,17.774],[-64.795,17.788],[-64.772,17.793],[-64.769,17.79],[-64.731,17.765],[-64.71,17.758],[-64.699,17.753],[-64.69,17.745],[-64.667,17.763],[-64.631,17.77],[-64.592,17.768],[-64.559,17.758],[-64.559,17.752]]],[[[-64.701,18.343],[-64.708,18.34],[-64.697,18.327],[-64.704,18.303],[-64.736,18.32],[-64.786,18.315],[-64.801,18.328],[-64.786,18.35],[-64.77,18.357],[-64.752,18.362],[-64.756,18.369],[-64.747,18.374],[-64.714,18.365],[-64.697,18.362],[-64.682,18.356],[-64.665,18.347],[-64.66,18.337],[-64.674,18.334],[-64.701,18.343]]],[[[-64.872,18.315],[-64.879,18.304],[-64.91,18.316],[-64.922,18.323],[-64.931,18.34],[-64.935,18.33],[-64.945,18.337],[-64.966,18.333],[-64.982,18.336],[-64.994,18.348],[-65.025,18.339],[-65.041,18.354],[-65.012,18.369],[-64.987,18.375],[-64.95,18.374],[-64.935,18.363],[-64.926,18.366],[-64.942,18.378],[-64.95,18.387],[-64.929,18.38],[-64.891,18.36],[-64.855,18.34],[-64.84,18.317],[-64.851,18.316],[-64.86,18.319],[-64.872,18.315]]]]}},{"type":"Feature","properties":{"name":"Samoa Americană","parentIso":"USA","iso":"ASM"},"geometry":{"type":"MultiPolygon","coordinates":[[[[-170.591,-14.265],[-170.576,-14.253],[-170.567,-14.259],[-170.568,-14.271],[-170.584,-14.278],[-170.642,-14.281],[-170.659,-14.285],[-170.684,-14.303],[-170.722,-14.353],[-170.749,-14.375],[-170.755,-14.367],[-170.796,-14.34],[-170.823,-14.327],[-170.831,-14.319],[-170.789,-14.295],[-170.773,-14.291],[-170.738,-14.292],[-170.722,-14.289],[-170.698,-14.261],[-170.661,-14.252],[-170.62,-14.255],[-170.591,-14.265]]],[[[-169.464,-14.223],[-169.444,-14.231],[-169.44,-14.245],[-169.447,-14.256],[-169.46,-14.25],[-169.468,-14.259],[-169.476,-14.262],[-169.485,-14.262],[-169.495,-14.257],[-169.498,-14.266],[-169.504,-14.271],[-169.513,-14.272],[-169.523,-14.271],[-169.526,-14.259],[-169.529,-14.249],[-169.535,-14.241],[-169.543,-14.237],[-169.528,-14.226],[-169.506,-14.222],[-169.464,-14.223]]],[[[-168.162,-14.533],[-168.173,-14.524],[-168.164,-14.52],[-168.16,-14.521],[-168.162,-14.533]]],[[[-169.676,-14.175],[-169.668,-14.169],[-169.658,-14.169],[-169.647,-14.172],[-169.636,-14.177],[-169.66,-14.189],[-169.67,-14.188],[-169.676,-14.175]]],[[[-171.073,-11.053],[-171.073,-11.062],[-171.082,-11.066],[-171.087,-11.06],[-171.086,-11.051],[-171.073,-11.053]]]]}},{"type":"Feature","properties":{"name":"Insulele Mariane de Nord","parentIso":"USA","iso":"MNP"},"geometry":{"type":"MultiPolygon","coordinates":[[[[145.206,14.181],[145.252,14.2],[145.28,14.203],[145.291,14.181],[145.287,14.17],[145.282,14.161],[145.274,14.156],[145.26,14.154],[145.25,14.15],[145.243,14.14],[145.237,14.129],[145.229,14.12],[145.21,14.111],[145.199,14.114],[145.19,14.122],[145.172,14.126],[145.142,14.123],[145.126,14.123],[145.119,14.13],[145.131,14.147],[145.157,14.164],[145.186,14.176],[145.206,14.181]]],[[[145.647,15.072],[145.653,15.059],[145.651,15.047],[145.648,15.033],[145.647,15.017],[145.651,15.009],[145.665,14.993],[145.668,14.983],[145.661,14.957],[145.646,14.93],[145.626,14.915],[145.606,14.928],[145.602,14.941],[145.598,14.969],[145.592,14.983],[145.58,14.999],[145.577,15.006],[145.578,15.017],[145.59,15.04],[145.611,15.067],[145.633,15.082],[145.647,15.072]]],[[[145.788,15.267],[145.801,15.272],[145.817,15.27],[145.824,15.262],[145.812,15.25],[145.8,15.243],[145.793,15.232],[145.776,15.19],[145.777,15.181],[145.785,15.168],[145.78,15.159],[145.774,15.155],[145.766,15.155],[145.757,15.161],[145.745,15.15],[145.739,15.137],[145.739,15.123],[145.747,15.109],[145.753,15.096],[145.739,15.096],[145.721,15.102],[145.716,15.106],[145.694,15.1],[145.686,15.102],[145.682,15.117],[145.684,15.131],[145.696,15.168],[145.697,15.183],[145.696,15.194],[145.698,15.203],[145.706,15.212],[145.711,15.216],[145.73,15.223],[145.733,15.228],[145.734,15.239],[145.736,15.243],[145.748,15.249],[145.774,15.257],[145.788,15.267]]],[[[145.709,16.367],[145.718,16.353],[145.711,16.345],[145.697,16.342],[145.669,16.339],[145.656,16.34],[145.644,16.345],[145.634,16.353],[145.628,16.364],[145.629,16.374],[145.638,16.38],[145.654,16.381],[145.667,16.377],[145.698,16.374],[145.709,16.367]]],[[[145.771,18.175],[145.812,18.174],[145.825,18.168],[145.835,18.158],[145.839,18.145],[145.836,18.128],[145.826,18.119],[145.814,18.113],[145.802,18.104],[145.758,18.061],[145.744,18.053],[145.719,18.054],[145.713,18.077],[145.74,18.091],[145.751,18.114],[145.757,18.162],[145.771,18.175]]],[[[145.662,18.724],[145.636,18.747],[145.633,18.787],[145.65,18.809],[145.688,18.807],[145.702,18.792],[145.708,18.78],[145.71,18.767],[145.709,18.748],[145.705,18.737],[145.694,18.728],[145.678,18.723],[145.662,18.724]]],[[[145.789,16.675],[145.769,16.695],[145.786,16.7],[145.805,16.693],[145.789,16.675]]],[[[145.855,17.286],[145.836,17.305],[145.851,17.309],[145.868,17.302],[145.855,17.286]]],[[[145.854,17.567],[145.832,17.577],[145.827,17.593],[145.834,17.606],[145.851,17.607],[145.863,17.599],[145.869,17.587],[145.867,17.575],[145.854,17.567]]],[[[145.406,19.653],[145.392,19.661],[145.382,19.673],[145.382,19.684],[145.397,19.689],[145.41,19.684],[145.415,19.674],[145.414,19.662],[145.406,19.653]]],[[[145.251,20.01],[145.24,20.013],[145.231,20.02],[145.227,20.03],[145.229,20.041],[145.239,20.05],[145.243,20.046],[145.245,20.036],[145.246,20.03],[145.252,20.031],[145.261,20.035],[145.269,20.036],[145.273,20.032],[145.271,20.024],[145.266,20.018],[145.259,20.013],[145.251,20.01]]],[[[144.916,20.517],[144.905,20.527],[144.902,20.54],[144.907,20.552],[144.92,20.555],[144.932,20.549],[144.932,20.538],[144.926,20.525],[144.916,20.517]]]]}},{"type":"Feature","properties":{"name":"Insula Norfolk","parentIso":"AUS","iso":"NFK"},"geometry":{"type":"Polygon","coordinates":[[[167.984,-29.018],[167.996,-29.026],[167.995,-29.043],[167.985,-29.059],[167.973,-29.066],[167.97,-29.069],[167.968,-29.072],[167.966,-29.076],[167.967,-29.08],[167.961,-29.066],[167.95,-29.057],[167.94,-29.056],[167.933,-29.066],[167.926,-29.066],[167.924,-29.056],[167.92,-29.046],[167.918,-29.036],[167.922,-29.029],[167.93,-29.019],[167.931,-29.012],[167.925,-29.009],[167.912,-29.012],[167.927,-28.997],[167.946,-29.001],[167.966,-29.012],[167.984,-29.018]]]}},{"type":"Feature","properties":{"name":"Insulele Cook","parentIso":"NZL","iso":"COK"},"geometry":{"type":"MultiPolygon","coordinates":[[[[-157.935,-21.878],[-157.921,-21.882],[-157.91,-21.892],[-157.89,-21.915],[-157.887,-21.926],[-157.899,-21.934],[-157.915,-21.938],[-157.928,-21.939],[-157.942,-21.937],[-157.953,-21.932],[-157.961,-21.924],[-157.969,-21.912],[-157.964,-21.9],[-157.955,-21.889],[-157.944,-21.88],[-157.935,-21.878]]],[[[-157.708,-19.767],[-157.71,-19.788],[-157.707,-19.816],[-157.708,-19.841],[-157.722,-19.856],[-157.722,-19.842],[-157.727,-19.832],[-157.734,-19.826],[-157.74,-19.818],[-157.742,-19.805],[-157.738,-19.797],[-157.716,-19.773],[-157.708,-19.767]]],[[[-157.941,-8.981],[-157.962,-8.981],[-157.979,-8.976],[-157.997,-8.965],[-158.008,-8.953],[-158.003,-8.947],[-157.941,-8.975],[-157.941,-8.981]]],[[[-159.798,-21.186],[-159.778,-21.187],[-159.758,-21.192],[-159.743,-21.202],[-159.736,-21.217],[-159.736,-21.237],[-159.738,-21.246],[-159.743,-21.254],[-159.771,-21.25],[-159.774,-21.251],[-159.793,-21.242],[-159.833,-21.245],[-159.846,-21.234],[-159.839,-21.226],[-159.833,-21.208],[-159.831,-21.196],[-159.823,-21.189],[-159.798,-21.186]]],[[[-157.313,-20.155],[-157.318,-20.172],[-157.329,-20.179],[-157.34,-20.176],[-157.349,-20.161],[-157.349,-20.143],[-157.339,-20.137],[-157.324,-20.142],[-157.313,-20.155]]],[[[-158.078,-19.994],[-158.082,-20.013],[-158.097,-20.02],[-158.115,-20.016],[-158.13,-20.001],[-158.135,-19.976],[-158.12,-19.973],[-158.097,-19.982],[-158.078,-19.994]]],[[[-158.268,-19.833],[-158.281,-19.822],[-158.276,-19.823],[-158.273,-19.826],[-158.268,-19.833]]],[[[-158.288,-19.811],[-158.294,-19.817],[-158.297,-19.817],[-158.296,-19.815],[-158.288,-19.811]]],[[[-158.925,-19.269],[-158.937,-19.264],[-158.95,-19.254],[-158.956,-19.245],[-158.946,-19.242],[-158.941,-19.247],[-158.938,-19.257],[-158.932,-19.264],[-158.918,-19.261],[-158.919,-19.264],[-158.92,-19.266],[-158.925,-19.269]]],[[[-165.825,-10.882],[-165.816,-10.88],[-165.812,-10.88],[-165.808,-10.881],[-165.814,-10.889],[-165.819,-10.892],[-165.822,-10.889],[-165.825,-10.882]]],[[[-160.986,-10.382],[-160.994,-10.375],[-160.996,-10.372],[-160.98,-10.381],[-160.938,-10.423],[-160.986,-10.382]]],[[[-161.088,-10.035],[-161.07,-10.027],[-161.076,-10.036],[-161.087,-10.045],[-161.088,-10.035]]],[[[-159.785,-18.831],[-159.773,-18.829],[-159.762,-18.837],[-159.761,-18.845],[-159.765,-18.842],[-159.767,-18.835],[-159.77,-18.834],[-159.779,-18.853],[-159.78,-18.856],[-159.776,-18.878],[-159.783,-18.888],[-159.794,-18.887],[-159.801,-18.878],[-159.802,-18.866],[-159.798,-18.847],[-159.794,-18.84],[-159.785,-18.831]]]]}},{"type":"Feature","properties":{"name":"Niue","parentIso":"NZL","iso":"NIU"},"geometry":{"type":"Polygon","coordinates":[[[-169.851,-18.965],[-169.825,-18.968],[-169.823,-18.973],[-169.794,-19.047],[-169.783,-19.069],[-169.797,-19.074],[-169.806,-19.082],[-169.824,-19.102],[-169.865,-19.13],[-169.873,-19.126],[-169.881,-19.129],[-169.899,-19.143],[-169.902,-19.133],[-169.91,-19.129],[-169.921,-19.128],[-169.934,-19.13],[-169.931,-19.126],[-169.928,-19.123],[-169.925,-19.119],[-169.919,-19.116],[-169.924,-19.099],[-169.926,-19.095],[-169.95,-19.087],[-169.948,-19.069],[-169.926,-19.038],[-169.928,-19.032],[-169.932,-19.027],[-169.934,-19.021],[-169.934,-19.014],[-169.93,-19.008],[-169.926,-19.007],[-169.922,-19.007],[-169.916,-19.003],[-169.896,-18.965],[-169.864,-18.964],[-169.851,-18.965]]]}},{"type":"Feature","properties":{"name":"Insulele Galápagos","parentIso":"ECU","iso":"Ecuador:galápagos|galapagos"},"geometry":{"type":"MultiPolygon","coordinates":[[[[-89.661,-1.34],[-89.635,-1.349],[-89.615,-1.37],[-89.613,-1.392],[-89.643,-1.402],[-89.676,-1.398],[-89.757,-1.361],[-89.736,-1.34],[-89.721,-1.343],[-89.674,-1.343],[-89.661,-1.34]]],[[[-90.381,-1.254],[-90.379,-1.257],[-90.374,-1.26],[-90.369,-1.265],[-90.366,-1.272],[-90.367,-1.279],[-90.369,-1.283],[-90.372,-1.285],[-90.373,-1.289],[-90.376,-1.292],[-90.389,-1.296],[-90.394,-1.299],[-90.395,-1.303],[-90.393,-1.315],[-90.394,-1.32],[-90.399,-1.326],[-90.432,-1.346],[-90.439,-1.347],[-90.475,-1.342],[-90.489,-1.332],[-90.503,-1.318],[-90.524,-1.306],[-90.515,-1.296],[-90.506,-1.282],[-90.5,-1.268],[-90.493,-1.238],[-90.483,-1.222],[-90.472,-1.217],[-90.463,-1.231],[-90.443,-1.226],[-90.415,-1.231],[-90.391,-1.242],[-90.381,-1.254]]],[[[-89.308,-0.686],[-89.296,-0.693],[-89.283,-0.693],[-89.269,-0.688],[-89.257,-0.682],[-89.255,-0.719],[-89.273,-0.76],[-89.302,-0.796],[-89.332,-0.819],[-89.367,-0.83],[-89.373,-0.836],[-89.375,-0.845],[-89.386,-0.875],[-89.407,-0.905],[-89.42,-0.919],[-89.435,-0.929],[-89.45,-0.934],[-89.466,-0.936],[-89.5,-0.935],[-89.51,-0.939],[-89.531,-0.953],[-89.545,-0.957],[-89.554,-0.954],[-89.576,-0.94],[-89.586,-0.935],[-89.621,-0.93],[-89.63,-0.926],[-89.631,-0.917],[-89.625,-0.906],[-89.613,-0.891],[-89.605,-0.883],[-89.565,-0.864],[-89.551,-0.854],[-89.541,-0.819],[-89.531,-0.818],[-89.489,-0.808],[-89.477,-0.797],[-89.462,-0.765],[-89.453,-0.753],[-89.427,-0.728],[-89.421,-0.72],[-89.413,-0.713],[-89.377,-0.7],[-89.366,-0.69],[-89.351,-0.689],[-89.32,-0.681],[-89.308,-0.686]]],[[[-90.192,-0.538],[-90.181,-0.549],[-90.183,-0.572],[-90.196,-0.614],[-90.195,-0.626],[-90.19,-0.64],[-90.188,-0.652],[-90.191,-0.654],[-90.199,-0.676],[-90.199,-0.682],[-90.216,-0.688],[-90.228,-0.704],[-90.238,-0.722],[-90.25,-0.737],[-90.26,-0.743],[-90.265,-0.745],[-90.314,-0.744],[-90.319,-0.747],[-90.324,-0.767],[-90.337,-0.777],[-90.355,-0.78],[-90.373,-0.778],[-90.407,-0.767],[-90.429,-0.762],[-90.436,-0.758],[-90.44,-0.753],[-90.446,-0.751],[-90.453,-0.744],[-90.474,-0.713],[-90.483,-0.703],[-90.498,-0.704],[-90.516,-0.7],[-90.534,-0.692],[-90.545,-0.682],[-90.546,-0.669],[-90.545,-0.62],[-90.539,-0.594],[-90.528,-0.57],[-90.513,-0.549],[-90.497,-0.532],[-90.488,-0.525],[-90.461,-0.514],[-90.449,-0.511],[-90.438,-0.511],[-90.416,-0.517],[-90.408,-0.518],[-90.399,-0.515],[-90.387,-0.508],[-90.381,-0.505],[-90.286,-0.494],[-90.264,-0.483],[-90.258,-0.485],[-90.253,-0.489],[-90.247,-0.493],[-90.243,-0.497],[-90.241,-0.507],[-90.242,-0.518],[-90.241,-0.528],[-90.233,-0.532],[-90.223,-0.533],[-90.203,-0.537],[-90.192,-0.538]]],[[[-91.401,-0.453],[-91.411,-0.458],[-91.48,-0.486],[-91.497,-0.49],[-91.508,-0.49],[-91.517,-0.487],[-91.538,-0.473],[-91.557,-0.468],[-91.587,-0.456],[-91.591,-0.456],[-91.602,-0.457],[-91.607,-0.456],[-91.611,-0.453],[-91.612,-0.45],[-91.611,-0.446],[-91.613,-0.442],[-91.631,-0.424],[-91.644,-0.404],[-91.652,-0.381],[-91.659,-0.335],[-91.671,-0.298],[-91.669,-0.285],[-91.581,-0.287],[-91.544,-0.268],[-91.497,-0.258],[-91.474,-0.249],[-91.467,-0.25],[-91.456,-0.258],[-91.421,-0.293],[-91.412,-0.299],[-91.4,-0.308],[-91.397,-0.329],[-91.401,-0.367],[-91.401,-0.453]]],[[[-90.565,-0.285],[-90.552,-0.293],[-90.558,-0.311],[-90.579,-0.343],[-90.587,-0.364],[-90.605,-0.37],[-90.628,-0.367],[-90.67,-0.354],[-90.74,-0.354],[-90.759,-0.348],[-90.777,-0.337],[-90.796,-0.331],[-90.818,-0.34],[-90.832,-0.323],[-90.839,-0.297],[-90.849,-0.276],[-90.874,-0.271],[-90.832,-0.213],[-90.829,-0.199],[-90.835,-0.182],[-90.827,-0.164],[-90.81,-0.151],[-90.792,-0.148],[-90.784,-0.153],[-90.781,-0.153],[-90.777,-0.148],[-90.758,-0.162],[-90.689,-0.185],[-90.665,-0.189],[-90.632,-0.201],[-90.58,-0.26],[-90.552,-0.278],[-90.556,-0.279],[-90.559,-0.28],[-90.565,-0.285]]],[[[-90.811,-0.731],[-90.802,-0.736],[-90.796,-0.736],[-90.793,-0.739],[-90.792,-0.754],[-90.797,-0.76],[-90.821,-0.77],[-90.829,-0.775],[-90.86,-0.873],[-90.857,-0.897],[-90.859,-0.915],[-90.88,-0.909],[-90.892,-0.925],[-90.918,-0.954],[-90.929,-0.97],[-90.946,-0.962],[-90.962,-0.961],[-90.994,-0.963],[-91.013,-0.969],[-91.045,-0.992],[-91.16,-1.03],[-91.182,-1.025],[-91.197,-1.03],[-91.287,-1.017],[-91.4,-1.018],[-91.421,-1.012],[-91.436,-0.997],[-91.44,-0.987],[-91.442,-0.976],[-91.442,-0.953],[-91.446,-0.942],[-91.455,-0.939],[-91.467,-0.939],[-91.477,-0.935],[-91.502,-0.896],[-91.493,-0.851],[-91.466,-0.808],[-91.436,-0.778],[-91.319,-0.703],[-91.314,-0.695],[-91.314,-0.688],[-91.31,-0.683],[-91.295,-0.682],[-91.27,-0.671],[-91.235,-0.662],[-91.223,-0.662],[-91.212,-0.665],[-91.206,-0.669],[-91.201,-0.673],[-91.196,-0.676],[-91.179,-0.682],[-91.168,-0.683],[-91.158,-0.679],[-91.153,-0.673],[-91.143,-0.658],[-91.138,-0.655],[-91.137,-0.644],[-91.128,-0.623],[-91.114,-0.608],[-91.099,-0.614],[-91.088,-0.597],[-91.087,-0.582],[-91.094,-0.569],[-91.107,-0.559],[-91.12,-0.552],[-91.15,-0.544],[-91.161,-0.538],[-91.185,-0.517],[-91.209,-0.485],[-91.228,-0.449],[-91.237,-0.415],[-91.236,-0.386],[-91.239,-0.376],[-91.251,-0.367],[-91.259,-0.364],[-91.272,-0.363],[-91.278,-0.36],[-91.282,-0.356],[-91.291,-0.34],[-91.352,-0.307],[-91.375,-0.282],[-91.374,-0.25],[-91.394,-0.238],[-91.406,-0.216],[-91.405,-0.196],[-91.381,-0.189],[-91.399,-0.163],[-91.406,-0.148],[-91.409,-0.131],[-91.409,-0.096],[-91.41,-0.087],[-91.414,-0.071],[-91.415,-0.062],[-91.423,-0.029],[-91.446,-0.012],[-91.476,-0.011],[-91.511,-0.024],[-91.546,-0.048],[-91.563,-0.052],[-91.583,-0.041],[-91.603,-0.014],[-91.607,-0.007],[-91.604,0.001],[-91.599,0.006],[-91.591,0.009],[-91.524,0.046],[-91.504,0.066],[-91.497,0.106],[-91.473,0.098],[-91.453,0.104],[-91.434,0.114],[-91.401,0.123],[-91.394,0.131],[-91.388,0.14],[-91.381,0.147],[-91.369,0.151],[-91.35,0.15],[-91.34,0.154],[-91.324,0.139],[-91.316,0.116],[-91.312,0.095],[-91.309,0.086],[-91.295,0.076],[-91.284,0.033],[-91.275,0.024],[-91.269,0.019],[-91.254,0],[-91.247,-0.004],[-91.226,-0.005],[-91.216,-0.007],[-91.209,-0.011],[-91.202,-0.028],[-91.201,-0.053],[-91.203,-0.099],[-91.185,-0.211],[-91.174,-0.228],[-91.132,-0.266],[-91.128,-0.271],[-91.127,-0.277],[-91.127,-0.288],[-91.124,-0.3],[-91.117,-0.304],[-91.11,-0.306],[-91.107,-0.309],[-91.005,-0.373],[-90.998,-0.384],[-90.995,-0.393],[-90.99,-0.402],[-90.976,-0.415],[-90.972,-0.418],[-90.956,-0.422],[-90.956,-0.428],[-90.958,-0.434],[-90.961,-0.439],[-90.962,-0.442],[-90.953,-0.48],[-90.949,-0.521],[-90.955,-0.54],[-90.982,-0.563],[-90.99,-0.579],[-90.968,-0.565],[-90.961,-0.573],[-90.961,-0.592],[-90.956,-0.607],[-90.914,-0.615],[-90.893,-0.626],[-90.895,-0.648],[-90.881,-0.65],[-90.869,-0.655],[-90.86,-0.664],[-90.853,-0.676],[-90.86,-0.69],[-90.846,-0.695],[-90.811,-0.731]]],[[[-90.514,0.284],[-90.524,0.287],[-90.533,0.295],[-90.541,0.304],[-90.545,0.311],[-90.542,0.334],[-90.526,0.35],[-90.504,0.361],[-90.483,0.365],[-90.46,0.358],[-90.436,0.347],[-90.417,0.331],[-90.408,0.311],[-90.415,0.296],[-90.432,0.28],[-90.455,0.267],[-90.476,0.263],[-90.488,0.267],[-90.501,0.281],[-90.514,0.284]]],[[[-90.798,0.654],[-90.757,0.631],[-90.744,0.585],[-90.761,0.554],[-90.805,0.572],[-90.798,0.593],[-90.805,0.636],[-90.798,0.654]]],[[[-91.819,1.386],[-91.815,1.385],[-91.811,1.377],[-91.813,1.372],[-91.818,1.368],[-91.823,1.371],[-91.825,1.377],[-91.825,1.383],[-91.819,1.386]]],[[[-91.822,1.394],[-91.818,1.395],[-91.82,1.391],[-91.822,1.394]]],[[[-92.012,1.659],[-92.006,1.664],[-92,1.66],[-92,1.651],[-92.007,1.65],[-92.012,1.659]]],[[[-89.957,0.342],[-89.952,0.343],[-89.943,0.342],[-89.937,0.328],[-89.938,0.311],[-89.945,0.304],[-89.944,0.315],[-89.952,0.318],[-89.962,0.313],[-89.962,0.306],[-89.971,0.31],[-89.975,0.324],[-89.97,0.335],[-89.957,0.342]]]]}}]}